ID,ID_artefact,site,context,municipality,county,country,country_code,paroisse,canton,comte,commune,lat,lng
DK-01,DK_01_01_pseudo_no_1,Stenilgård,Års,NA,NA,Denmark,DK,Aars,Aars,Aalborg,Vesthimmerland,56.80399,9.51441
DK-04,DK_04_01_pseudo_no_1,Lynnerup II,NA,NA,NA,Denmark,DK,Skivum,Aars,Aalborg,Vesthimmerland,56.86606,9.59004
DK-05,DK_05_XX_pseudo_no_1,Blære,Couche 6,NA,NA,Denmark,DK,Blære,Aars,Aalborg,Vesthimmerland,56.8641,9.5159300000000009
DK-05,DK_05_XX_pseudo_no_2,Blære,Couche 6,NA,NA,Denmark,DK,Blære,Aars,Aalborg,Vesthimmerland,56.8641,9.5159300000000009
DK-05,DK_05_XX_pseudo_no_3,Blære,Couche 6,NA,NA,Denmark,DK,Blære,Aars,Aalborg,Vesthimmerland,56.8641,9.5159300000000009
DK-05,DK_05_XX_pseudo_no_4,Blære,Couche 6,NA,NA,Denmark,DK,Blære,Aars,Aalborg,Vesthimmerland,56.8641,9.5159300000000009
DK-05,DK_05_XX_pseudo_no_5,Blære,Couche 6,NA,NA,Denmark,DK,Blære,Aars,Aalborg,Vesthimmerland,56.8641,9.5159300000000009
DK-05,DK_05_XX_pseudo_no_6,Blære,Couche 6,NA,NA,Denmark,DK,Blære,Aars,Aalborg,Vesthimmerland,56.8641,9.5159300000000009
DK-05,DK_05_XX_pseudo_no_7,Blære,Couche 6,NA,NA,Denmark,DK,Blære,Aars,Aalborg,Vesthimmerland,56.8641,9.5159300000000009
DK-05,DK_05_XX_pseudo_no_8,Blære,Couche 6,NA,NA,Denmark,DK,Blære,Aars,Aalborg,Vesthimmerland,56.8641,9.5159300000000009
DK-05,DK_05_XX_pseudo_no_9,Blære,Couche 6,NA,NA,Denmark,DK,Blære,Aars,Aalborg,Vesthimmerland,56.8641,9.5159300000000009
DK-06,DK_06_XX_pseudo_no_1,Fandrup,NA,NA,NA,Denmark,DK,Farsø,Gislum,Aalborg,Vesthimmerland,56.77276,9.33925
DK-06,DK_06_XX_pseudo_no_2,Fandrup,NA,NA,NA,Denmark,DK,Farsø,Gislum,Aalborg,Vesthimmerland,56.77276,9.33925
DK-06,DK_06_XX_pseudo_no_3,Fandrup,NA,NA,NA,Denmark,DK,Farsø,Gislum,Aalborg,Vesthimmerland,56.77276,9.33925
DK-09,DK_09_01_pseudo_no_1,Rold Mark,NA,NA,NA,Denmark,DK,Rold,Hindsted,Aalborg,Mariagerfjord,56.76668,9.8232
DK-15,DK_15_01_pseudo_no_1,Åle,Tumulus 1,NA,NA,Denmark,DK,Ranum,Slet,Aalborg,Mariagerfjord,56.896423,9.227089
DK-16,DK_16_XX_pseudo_no_1,Damgården IV,NA,NA,NA,Denmark,DK,Søften,Vester-Lisbjerg,Århus,Favrskov,56.23801,10.0851
DK-16,DK_16_XX_pseudo_no_2,Damgården IV,NA,NA,NA,Denmark,DK,Søften,Vester-Lisbjerg,Århus,Favrskov,56.23801,10.0851
DK-19,DK_19_01_pseudo_no_1,Melbjerg høje,Stubdrup,NA,NA,Denmark,DK,Øster Brønderslev,Børglum,Hjørring,Brønderslev,57.24841,9.99593
DK-20,DK_20_XX_pseudo_no_1,Lem,NA,NA,NA,Denmark,DK,Hellevad,Dronninglund,Hjørring,Brønderslev,57.21022,10.1672
DK-20,DK_20_XX_pseudo_no_2,Lem,NA,NA,NA,Denmark,DK,Hellevad,Dronninglund,Hjørring,Brønderslev,57.21022,10.1672
DK-20,DK_20_XX_pseudo_no_3,Lem,NA,NA,NA,Denmark,DK,Hellevad,Dronninglund,Hjørring,Brønderslev,57.21022,10.1672
DK-24,DK_24_01_pseudo_no_1,Thorsø Hede,NA,NA,NA,Denmark,DK,Voldby,Djurs Nørre,Randers,Norddjurs,56.46191,10.86866
DK-25,DK_25_XX_pseudo_no_1,Kjeldsminde,NA,NA,NA,Denmark,DK,Årslev,Sønderhald,Randers,Randers,56.39764,10.15032
DK-25,DK_25_XX_pseudo_no_2,Kjeldsminde,NA,NA,NA,Denmark,DK,Årslev,Sønderhald,Randers,Randers,56.39764,10.15032
DK-25,DK_25_XX_pseudo_no_3,Kjeldsminde,NA,NA,NA,Denmark,DK,Årslev,Sønderhald,Randers,Randers,56.39764,10.15032
DK-25,DK_25_XX_pseudo_no_4,Kjeldsminde,NA,NA,NA,Denmark,DK,Årslev,Sønderhald,Randers,Randers,56.39764,10.15032
DK-25,DK_25_XX_pseudo_no_5,Kjeldsminde,NA,NA,NA,Denmark,DK,Årslev,Sønderhald,Randers,Randers,56.39764,10.15032
DK-26,DK_26_XX_pseudo_no_1,Lemmer,NA,NA,NA,Denmark,DK,Lime,Sønderhald,Randers,Syddjurs,56.3125,10.52083
DK-26,DK_26_XX_pseudo_no_2,Lemmer,NA,NA,NA,Denmark,DK,Lime,Sønderhald,Randers,Syddjurs,56.3125,10.52083
DK-26,DK_26_XX_pseudo_no_3,Lemmer,NA,NA,NA,Denmark,DK,Lime,Sønderhald,Randers,Syddjurs,56.3125,10.52083
DK-26,DK_26_XX_pseudo_no_4,Lemmer,NA,NA,NA,Denmark,DK,Lime,Sønderhald,Randers,Syddjurs,56.3125,10.52083
DK-26,DK_26_XX_pseudo_no_5,Lemmer,NA,NA,NA,Denmark,DK,Lime,Sønderhald,Randers,Syddjurs,56.3125,10.52083
DK-27,DK_27_XX_pseudo_no_1,Allestrup Vest,Tombe Bz,NA,NA,Denmark,DK,Vejlby,Sønderhald,Randers,Norddjurs,56.38316,10.81514
DK-27,DK_27_XX_pseudo_no_2,Allestrup Vest,Tombe Bz,NA,NA,Denmark,DK,Vejlby,Sønderhald,Randers,Norddjurs,56.38316,10.81514
DK-27,DK_27_XX_pseudo_no_3,Allestrup Vest,Tombe Bz,NA,NA,Denmark,DK,Vejlby,Sønderhald,Randers,Norddjurs,56.38316,10.81514
DK-27,DK_27_XX_pseudo_no_4,Allestrup Vest,Tombe Bz,NA,NA,Denmark,DK,Vejlby,Sønderhald,Randers,Norddjurs,56.38316,10.81514
DK-28,DK_28_XX_pseudo_no_1,Allestrup Vest,Tombe Cn,NA,NA,Denmark,DK,Vejlby,Sønderhald,Randers,Norddjurs,56.38316,10.81514
DK-28,DK_28_XX_pseudo_no_2,Allestrup Vest,Tombe Cn,NA,NA,Denmark,DK,Vejlby,Sønderhald,Randers,Norddjurs,56.38316,10.81514
DK-28,DK_28_XX_pseudo_no_3,Allestrup Vest,Tombe Cn,NA,NA,Denmark,DK,Vejlby,Sønderhald,Randers,Norddjurs,56.38316,10.81514
DK-28,DK_28_XX_pseudo_no_4,Allestrup Vest,Tombe Cn,NA,NA,Denmark,DK,Vejlby,Sønderhald,Randers,Norddjurs,56.38316,10.81514
DK-28,DK_28_XX_pseudo_no_5,Allestrup Vest,Tombe Cn,NA,NA,Denmark,DK,Vejlby,Sønderhald,Randers,Norddjurs,56.38316,10.81514
DK-28,DK_28_XX_pseudo_no_6,Allestrup Vest,Tombe Cn,NA,NA,Denmark,DK,Vejlby,Sønderhald,Randers,Norddjurs,56.38316,10.81514
DK-28,DK_28_XX_pseudo_no_7,Allestrup Vest,Tombe Cn,NA,NA,Denmark,DK,Vejlby,Sønderhald,Randers,Norddjurs,56.38316,10.81514
DK-29,DK_29_XX_pseudo_no_1,Allestrup Vest,Tombe Eh,NA,NA,Denmark,DK,Vejlby,Sønderhald,Randers,Norddjurs,56.38316,10.81514
DK-29,DK_29_XX_pseudo_no_2,Allestrup Vest,Tombe Eh,NA,NA,Denmark,DK,Vejlby,Sønderhald,Randers,Norddjurs,56.38316,10.81514
DK-29,DK_29_XX_pseudo_no_3,Allestrup Vest,Tombe Eh,NA,NA,Denmark,DK,Vejlby,Sønderhald,Randers,Norddjurs,56.38316,10.81514
DK-30,DK_30_01_pseudo_no_1,Vittrup,Tumulus 3,Tombe A,NA,Denmark,DK,Lindknud,Malt,Ribe,Vejen,55.56594,9.01605
DK-31,DK_31_XX_pseudo_no_1,Solbakkegård IV,Tombe GP,NA,NA,Denmark,DK,Bryndum,Skads,Ribe,Esbjerg,55.53593,8.47885
DK-31,DK_31_XX_pseudo_no_2,Solbakkegård IV,Tombe GP,NA,NA,Denmark,DK,Bryndum,Skads,Ribe,Esbjerg,55.53593,8.47885
DK-32,DK_32_01_pseudo_no_1,Fredshavn,NA,NA,NA,Denmark,DK,Vorbasse,Slaugs,Ribe,Billund,55.62992,9.08239
DK-33,DK_33_01_pseudo_no_1,Vorbasse 6c,Tombe C2,NA,NA,Denmark,DK,Vorbasse,Slaugs,Ribe,Billund,55.62992,9.08239
DK-34,DK_34_XX_pseudo_no_1,Vorbasse 20a,NA,NA,NA,Denmark,DK,Vorbasse,Slaugs,Ribe,Billund,55.62992,9.08239
DK-34,DK_34_XX_pseudo_no_2,Vorbasse 20a,NA,NA,NA,Denmark,DK,Vorbasse,Slaugs,Ribe,Billund,55.62992,9.08239
DK-34,DK_34_XX_pseudo_no_3,Vorbasse 20a,NA,NA,NA,Denmark,DK,Vorbasse,Slaugs,Ribe,Billund,55.62992,9.08239
DK-34,DK_34_XX_pseudo_no_4,Vorbasse 20a,NA,NA,NA,Denmark,DK,Vorbasse,Slaugs,Ribe,Billund,55.62992,9.08239
DK-34,DK_34_XX_pseudo_no_5,Vorbasse 20a,NA,NA,NA,Denmark,DK,Vorbasse,Slaugs,Ribe,Billund,55.62992,9.08239
DK-34,DK_34_XX_pseudo_no_6,Vorbasse 20a,NA,NA,NA,Denmark,DK,Vorbasse,Slaugs,Ribe,Billund,55.62992,9.08239
DK-35,DK_35_01_pseudo_no_1,Slavgård,Tumulus 13,NA,NA,Denmark,DK,Vorbasse,Slaugs,Ribe,Billund,55.62992,9.08239
DK-38,DK_38_XX_pseudo_no_1,Vester Egebjerg,NA,NA,NA,Denmark,DK,Ejsing,Ginding,Ringkøbing,Holstebro,56.5218,8.78599
DK-38,DK_38_XX_pseudo_no_2,Vester Egebjerg,NA,NA,NA,Denmark,DK,Ejsing,Ginding,Ringkøbing,Holstebro,56.5218,8.78599
DK-38,DK_38_XX_pseudo_no_3,Vester Egebjerg,NA,NA,NA,Denmark,DK,Ejsing,Ginding,Ringkøbing,Holstebro,56.5218,8.78599
DK-39,DK_39_XX_pseudo_no_1,Kirkegårde,NA,NA,NA,Denmark,DK,Assing,Hammerum,Ringkøbing,Herning,56.0114,8.85934
DK-39,DK_39_XX_pseudo_no_2,Kirkegårde,NA,NA,NA,Denmark,DK,Assing,Hammerum,Ringkøbing,Herning,56.0114,8.85934
DK-39,DK_39_XX_pseudo_no_3,Kirkegårde,NA,NA,NA,Denmark,DK,Assing,Hammerum,Ringkøbing,Herning,56.0114,8.85934
DK-39,DK_39_XX_pseudo_no_4,Kirkegårde,NA,NA,NA,Denmark,DK,Assing,Hammerum,Ringkøbing,Herning,56.0114,8.85934
DK-39,DK_39_XX_pseudo_no_5,Kirkegårde,NA,NA,NA,Denmark,DK,Assing,Hammerum,Ringkøbing,Herning,56.0114,8.85934
DK-39,DK_39_XX_pseudo_no_6,Kirkegårde,NA,NA,NA,Denmark,DK,Assing,Hammerum,Ringkøbing,Herning,56.0114,8.85934
DK-39,DK_39_XX_pseudo_no_7,Kirkegårde,NA,NA,NA,Denmark,DK,Assing,Hammerum,Ringkøbing,Herning,56.0114,8.85934
DK-39,DK_39_XX_pseudo_no_8,Kirkegårde,NA,NA,NA,Denmark,DK,Assing,Hammerum,Ringkøbing,Herning,56.0114,8.85934
DK-40,DK_40_01_pseudo_no_1,Kvindvad,Tumulus 1,Tombe A,NA,Denmark,DK,Sinding,Hammerum,Ringkøbing,Herning,56.21237,8.85101
DK-42,DK_42_01_pseudo_no_1,Kvindvad,Tumulus 4,Tombe B,NA,Denmark,DK,Sinding,Hammerum,Ringkøbing,Herning,56.21237,8.85101
DK-44,DK_44_XX_pseudo_no_1,Tingerdal,Tumulus 7,Tombe F,NA,Denmark,DK,Borbjerg,Hjerm,Ringkøbing,Holstebro,56.40361,8.75461
DK-44,DK_44_XX_pseudo_no_2,Tingerdal,Tumulus 7,Tombe F,NA,Denmark,DK,Borbjerg,Hjerm,Ringkøbing,Holstebro,56.40361,8.75461
DK-44,DK_44_XX_pseudo_no_3,Tingerdal,Tumulus 7,Tombe F,NA,Denmark,DK,Borbjerg,Hjerm,Ringkøbing,Holstebro,56.40361,8.75461
DK-45,DK_45_XX_pseudo_no_1,Råbjerg Hede,Tumulus 1,Tombe C,NA,Denmark,DK,Fovsing,Hjerm,Ringkøbing,Struer,56.46667,8.53333
DK-45,DK_45_XX_pseudo_no_2,Råbjerg Hede,Tumulus 1,Tombe C,NA,Denmark,DK,Fovsing,Hjerm,Ringkøbing,Struer,56.46667,8.53333
DK-45,DK_45_XX_pseudo_no_3,Råbjerg Hede,Tumulus 1,Tombe C,NA,Denmark,DK,Fovsing,Hjerm,Ringkøbing,Struer,56.46667,8.53333
DK-47,DK_47_XX_pseudo_no_1,Roesgård,Rom,NA,NA,Denmark,DK,Gudum,Skodborg,Ringkøbing,Lemvig,56.51579,8.47536
DK-47,DK_47_XX_pseudo_no_2,Roesgård,Rom,NA,NA,Denmark,DK,Gudum,Skodborg,Ringkøbing,Lemvig,56.51579,8.47536
DK-47,DK_47_XX_pseudo_no_3,Roesgård,Rom,NA,NA,Denmark,DK,Gudum,Skodborg,Ringkøbing,Lemvig,56.51579,8.47536
DK-47,DK_47_XX_pseudo_no_4,Roesgård,Rom,NA,NA,Denmark,DK,Gudum,Skodborg,Ringkøbing,Lemvig,56.51579,8.47536
DK-48,DK_48_XX_pseudo_no_1,Øster Herupgård,NA,NA,NA,Denmark,DK,Dybe,Vandfuld,Ringkøbing,Lemvig,56.51254,8.16926
DK-48,DK_48_XX_pseudo_no_2,Øster Herupgård,NA,NA,NA,Denmark,DK,Dybe,Vandfuld,Ringkøbing,Lemvig,56.51254,8.16926
DK-50,DK_50_XX_pseudo_no_1,Trust,Tumulus 12,NA,NA,Denmark,DK,Tvilum,Gjern,Skanderborg,Silkeborg,56.24354,9.67367
DK-50,DK_50_XX_pseudo_no_2,Trust,Tumulus 12,NA,NA,Denmark,DK,Tvilum,Gjern,Skanderborg,Silkeborg,56.24354,9.67367
DK-50,DK_50_XX_pseudo_no_3,Trust,Tumulus 12,NA,NA,Denmark,DK,Tvilum,Gjern,Skanderborg,Silkeborg,56.24354,9.67367
DK-50,DK_50_XX_pseudo_no_4,Trust,Tumulus 12,NA,NA,Denmark,DK,Tvilum,Gjern,Skanderborg,Silkeborg,56.24354,9.67367
DK-50,DK_50_XX_pseudo_no_5,Trust,Tumulus 12,NA,NA,Denmark,DK,Tvilum,Gjern,Skanderborg,Silkeborg,56.24354,9.67367
DK-50,DK_50_XX_pseudo_no_6,Trust,Tumulus 12,NA,NA,Denmark,DK,Tvilum,Gjern,Skanderborg,Silkeborg,56.24354,9.67367
DK-52,DK_52_01_pseudo_no_1,Tvilum,Tombe CT,NA,NA,Denmark,DK,Tvilum,Gjern,Skanderborg,Silkeborg,56.24354,9.67367
DK-53,DK_53_02_pseudo_no_1,Karolinelund,Tombe A,NA,NA,Denmark,DK,Voel,Gjern,Skanderborg,Silkeborg,56.19107,9.69405
DK-53,DK_53_XX_pseudo_no_1,Karolinelund,Tombe A,NA,NA,Denmark,DK,Voel,Gjern,Skanderborg,Silkeborg,56.19107,9.69405
DK-53,DK_53_XX_pseudo_no_2,Karolinelund,Tombe A,NA,NA,Denmark,DK,Voel,Gjern,Skanderborg,Silkeborg,56.19107,9.69405
DK-54,DK_54_XX_pseudo_no_1,Karolinelund,Tombe F,NA,NA,Denmark,DK,Voel,Gjern,Skanderborg,Silkeborg,56.19107,9.69405
DK-54,DK_54_XX_pseudo_no_2,Karolinelund,Tombe F,NA,NA,Denmark,DK,Voel,Gjern,Skanderborg,Silkeborg,56.19107,9.69405
DK-54,DK_54_XX_pseudo_no_3,Karolinelund,Tombe F,NA,NA,Denmark,DK,Voel,Gjern,Skanderborg,Silkeborg,56.19107,9.69405
DK-54,DK_54_XX_pseudo_no_4,Karolinelund,Tombe F,NA,NA,Denmark,DK,Voel,Gjern,Skanderborg,Silkeborg,56.19107,9.69405
DK-55,DK_55_XX_pseudo_no_1,Vinding,Tombe O,NA,NA,Denmark,DK,Vinding,Tyrsting,Skanderborg,Silkeborg,56.02285,9.56698
DK-55,DK_55_XX_pseudo_no_2,Vinding,Tombe O,NA,NA,Denmark,DK,Vinding,Tyrsting,Skanderborg,Silkeborg,56.02285,9.56698
DK-56,DK_56_XX_pseudo_no_1,Østbirk,Tombe 4,NA,NA,Denmark,DK,Østbirk,Voer,Skanderborg,Horsens,55.96482,9.75556
DK-56,DK_56_XX_pseudo_no_2,Østbirk,Tombe 4,NA,NA,Denmark,DK,Østbirk,Voer,Skanderborg,Horsens,55.96482,9.75556
DK-57,DK_57_01_pseudo_no_1,Plovstrup,NA,NA,NA,Denmark,DK,Tørring,Vrads,Skanderborg,Hedensted,55.85,9.48333
DK-58,DK_58_01_pseudo_no_1,Ølmose Huse,NA,NA,NA,Denmark,DK,Haraldsted,Ringsted,Sorø,Ringsted,55.48532,11.79287
DK-59,DK_59_01_pseudo_no_1,Juelsberg,NA,NA,NA,Denmark,DK,Avnslev,Vindinge,Svendborg,Nyborg,55.29473,10.7031
DK-60,DK_60_XX_pseudo_no_1,Visby,Tombe N8,NA,NA,Denmark,DK,Visby,Hassing,Thisted,Thisted,57.0688,8.70523
DK-60,DK_60_XX_pseudo_no_2,Visby,Tombe N8,NA,NA,Denmark,DK,Visby,Hassing,Thisted,Thisted,57.0688,8.70523
DK-61,DK_61_01_pseudo_no_1,Bjergby,NA,NA,NA,Denmark,DK,Bjergby,Morsø Nørre,Thisted,Morsø,56.86788,8.73446
DK-62,DK_62_01_pseudo_no_1,Højsager,NA,NA,NA,Denmark,DK,Bjergby,Morsø Nørre,Thisted,Morsø,56.86788,8.73446
DK-63,DK_63_01_pseudo_no_1,Trinddøjs,NA,NA,NA,Denmark,DK,Lødderup,Morsø Sønder,Thisted,Morsø,56.78189,8.7958
DK-65,DK_65_XX_pseudo_no_1,Rakkeby Hede,NA,NA,NA,Denmark,DK,Rakkeby,Morsø Sønder,Thisted,Morsø,56.76588,8.62293
DK-65,DK_65_XX_pseudo_no_2,Rakkeby Hede,NA,NA,NA,Denmark,DK,Rakkeby,Morsø Sønder,Thisted,Morsø,56.76588,8.62293
DK-65,DK_65_XX_pseudo_no_3,Rakkeby Hede,NA,NA,NA,Denmark,DK,Rakkeby,Morsø Sønder,Thisted,Morsø,56.76588,8.62293
DK-65,DK_65_XX_pseudo_no_4,Rakkeby Hede,NA,NA,NA,Denmark,DK,Rakkeby,Morsø Sønder,Thisted,Morsø,56.76588,8.62293
DK-66,DK_66_01_pseudo_no_1,Odby,Tombe A,NA,NA,Denmark,DK,Odby,Refs,Thisted,Struer,56.60712,8.52567
DK-67,DK_67_XX_pseudo_no_1,Tåbel Renseanlæg,NA,NA,NA,Denmark,DK,Vestervig,Refs,Thisted,Thisted,56.76279,8.31942
DK-67,DK_67_XX_pseudo_no_2,Tåbel Renseanlæg,NA,NA,NA,Denmark,DK,Vestervig,Refs,Thisted,Thisted,56.76279,8.31942
DK-67,DK_67_XX_pseudo_no_3,Tåbel Renseanlæg,NA,NA,NA,Denmark,DK,Vestervig,Refs,Thisted,Thisted,56.76279,8.31942
DK-67,DK_67_XX_pseudo_no_4,Tåbel Renseanlæg,NA,NA,NA,Denmark,DK,Vestervig,Refs,Thisted,Thisted,56.76279,8.31942
DK-67,DK_67_XX_pseudo_no_5,Tåbel Renseanlæg,NA,NA,NA,Denmark,DK,Vestervig,Refs,Thisted,Thisted,56.76279,8.31942
DK-67,DK_67_XX_pseudo_no_6,Tåbel Renseanlæg,NA,NA,NA,Denmark,DK,Vestervig,Refs,Thisted,Thisted,56.76279,8.31942
DK-67,DK_67_XX_pseudo_no_7,Tåbel Renseanlæg,NA,NA,NA,Denmark,DK,Vestervig,Refs,Thisted,Thisted,56.76279,8.31942
DK-68,DK_68_XX_pseudo_no_1,Vestervig,Tombe C,NA,NA,Denmark,DK,Vestervig,Refs,Thisted,Thisted,56.76279,8.31942
DK-68,DK_68_XX_pseudo_no_2,Vestervig,Tombe C,NA,NA,Denmark,DK,Vestervig,Refs,Thisted,Thisted,56.76279,8.31942
DK-68,DK_68_XX_pseudo_no_3,Vestervig,Tombe C,NA,NA,Denmark,DK,Vestervig,Refs,Thisted,Thisted,56.76279,8.31942
DK-68,DK_68_XX_pseudo_no_4,Vestervig,Tombe C,NA,NA,Denmark,DK,Vestervig,Refs,Thisted,Thisted,56.76279,8.31942
DK-69,DK_69_01_pseudo_no_1,Ellidsbøl,NA,NA,NA,Denmark,DK,Vust,Vester Han,Thisted,Jammerbugt,57.11193,9.07039
DK-70,DK_70_XX_pseudo_no_1,Løsning,NA,NA,NA,Denmark,DK,Løsning,Hatting,Viborg,Hedensted,55.80236,9.69539
DK-70,DK_70_XX_pseudo_no_2,Løsning,NA,NA,NA,Denmark,DK,Løsning,Hatting,Viborg,Hedensted,55.80236,9.69539
DK-70,DK_70_XX_pseudo_no_3,Løsning,NA,NA,NA,Denmark,DK,Løsning,Hatting,Viborg,Hedensted,55.80236,9.69539
DK-70,DK_70_XX_pseudo_no_4,Løsning,NA,NA,NA,Denmark,DK,Løsning,Hatting,Viborg,Hedensted,55.80236,9.69539
DK-70,DK_70_XX_pseudo_no_5,Løsning,NA,NA,NA,Denmark,DK,Løsning,Hatting,Viborg,Hedensted,55.80236,9.69539
DK-70,DK_70_XX_pseudo_no_6,Løsning,NA,NA,NA,Denmark,DK,Løsning,Hatting,Viborg,Hedensted,55.80236,9.69539
DK-70,DK_70_XX_pseudo_no_7,Løsning,NA,NA,NA,Denmark,DK,Løsning,Hatting,Viborg,Hedensted,55.80236,9.69539
DK-73,DK_73_XX_pseudo_no_1,Kobberup,NA,NA,NA,Denmark,DK,Kobberup,Fjends,Viborg,Viborg,56.51539,9.08953
DK-73,DK_73_XX_pseudo_no_2,Kobberup,NA,NA,NA,Denmark,DK,Kobberup,Fjends,Viborg,Viborg,56.51539,9.08953
DK-73,DK_73_XX_pseudo_no_3,Kobberup,NA,NA,NA,Denmark,DK,Kobberup,Fjends,Viborg,Viborg,56.51539,9.08953
DK-73,DK_73_XX_pseudo_no_4,Kobberup,NA,NA,NA,Denmark,DK,Kobberup,Fjends,Viborg,Viborg,56.51539,9.08953
DK-76,DK_76_XX_pseudo_no_1,Vridsted,NA,NA,NA,Denmark,DK,Vridsted,Fjends,Viborg,Skive,56.44421,9.00639
DK-76,DK_76_XX_pseudo_no_2,Vridsted,NA,NA,NA,Denmark,DK,Vridsted,Fjends,Viborg,Skive,56.44421,9.00639
DK-76,DK_76_XX_pseudo_no_3,Vridsted,NA,NA,NA,Denmark,DK,Vridsted,Fjends,Viborg,Skive,56.44421,9.00639
DK-76,DK_76_XX_pseudo_no_4,Vridsted,NA,NA,NA,Denmark,DK,Vridsted,Fjends,Viborg,Skive,56.44421,9.00639
DK-76,DK_76_XX_pseudo_no_5,Vridsted,NA,NA,NA,Denmark,DK,Vridsted,Fjends,Viborg,Skive,56.44421,9.00639
DK-77,DK_77_XX_pseudo_no_1,Nissum,NA,NA,NA,Denmark,DK,Åsted,Harre,Viborg,Skive,56.76978,8.99082
DK-77,DK_77_XX_pseudo_no_2,Nissum,NA,NA,NA,Denmark,DK,Åsted,Harre,Viborg,Skive,56.76978,8.99082
DK-77,DK_77_XX_pseudo_no_3,Nissum,NA,NA,NA,Denmark,DK,Åsted,Harre,Viborg,Skive,56.76978,8.99082
DK-80,DK_80_XX_pseudo_no_1,Hvinningdal III,Tombe B,NA,NA,Denmark,DK,Balle,Hids,Viborg,Silkeborg,56.1697,9.54508
DK-80,DK_80_XX_pseudo_no_2,Hvinningdal III,Tombe B,NA,NA,Denmark,DK,Balle,Hids,Viborg,Silkeborg,56.1697,9.54508
DK-81,DK_81_XX_pseudo_no_1,Grove,NA,NA,NA,Denmark,DK,Brøndum,Hindborg,Viborg,Skive,56.58504,8.90879
DK-81,DK_81_XX_pseudo_no_2,Grove,NA,NA,NA,Denmark,DK,Brøndum,Hindborg,Viborg,Skive,56.58504,8.90879
DK-81,DK_81_XX_pseudo_no_3,Grove,NA,NA,NA,Denmark,DK,Brøndum,Hindborg,Viborg,Skive,56.58504,8.90879
DK-82,DK_82_XX_pseudo_no_1,Tolstrup,Tombe centrale,NA,NA,Denmark,DK,Dølby,Hindborg,Viborg,Skive,56.6076,8.98099
DK-82,DK_82_XX_pseudo_no_2,Tolstrup,Tombe centrale,NA,NA,Denmark,DK,Dølby,Hindborg,Viborg,Skive,56.6076,8.98099
DK-82,DK_82_XX_pseudo_no_3,Tolstrup,Tombe centrale,NA,NA,Denmark,DK,Dølby,Hindborg,Viborg,Skive,56.6076,8.98099
DK-82,DK_82_XX_pseudo_no_4,Tolstrup,Tombe centrale,NA,NA,Denmark,DK,Dølby,Hindborg,Viborg,Skive,56.6076,8.98099
DK-83,DK_83_XX_pseudo_no_1,Savstrupgård,NA,NA,NA,Denmark,DK,Oddense,Hindborg,Viborg,Skive,56.65366,8.93329
DK-83,DK_83_XX_pseudo_no_2,Savstrupgård,NA,NA,NA,Denmark,DK,Oddense,Hindborg,Viborg,Skive,56.65366,8.93329
DK-85,DK_85_XX_pseudo_no_1,Kistrup,NA,NA,NA,Denmark,DK,Løvel,Nørlyng,Viborg,Viborg,56.53377,9.4698
DK-85,DK_85_XX_pseudo_no_2,Kistrup,NA,NA,NA,Denmark,DK,Løvel,Nørlyng,Viborg,Viborg,56.53377,9.4698
DK-86,DK_86_XX_pseudo_no_1,Rærup,NA,NA,NA,Denmark,DK,Grinderslev,Nørre,Viborg,Skive,56.69918,9.0674
DK-86,DK_86_XX_pseudo_no_2,Rærup,NA,NA,NA,Denmark,DK,Grinderslev,Nørre,Viborg,Skive,56.69918,9.0674
DK-86,DK_86_XX_pseudo_no_3,Rærup,NA,NA,NA,Denmark,DK,Grinderslev,Nørre,Viborg,Skive,56.69918,9.0674
DK-86,DK_86_XX_pseudo_no_4,Rærup,NA,NA,NA,Denmark,DK,Grinderslev,Nørre,Viborg,Skive,56.69918,9.0674
DK-86,DK_86_XX_pseudo_no_5,Rærup,NA,NA,NA,Denmark,DK,Grinderslev,Nørre,Viborg,Skive,56.69918,9.0674
DK-87,DK_87_XX_pseudo_no_1,Thise / Puushøi,NA,NA,NA,Denmark,DK,Thise,Nørre,Viborg,Skive,56.72098,9.13421
DK-87,DK_87_XX_pseudo_no_2,Thise / Puushøi,NA,NA,NA,Denmark,DK,Thise,Nørre,Viborg,Skive,56.72098,9.13421
DK-88,DK_88_XX_pseudo_no_1,Sønder Andrup,NA,NA,NA,Denmark,DK,Ramsing,Rødding,Viborg,Skive,56.59579,8.84253
DK-88,DK_88_XX_pseudo_no_2,Sønder Andrup,NA,NA,NA,Denmark,DK,Ramsing,Rødding,Viborg,Skive,56.59579,8.84253
DK-88,DK_88_XX_pseudo_no_3,Sønder Andrup,NA,NA,NA,Denmark,DK,Ramsing,Rødding,Viborg,Skive,56.59579,8.84253
FR-01,FR_01_XX_pseudo_no_1,La Motta,NA,Lannion,Côtes-d'Armor,France,FR,NA,NA,NA,NA,48.73255,-3.45542
FR-01,FR_01_XX_pseudo_no_2,La Motta,NA,Lannion,Côtes-d'Armor,France,FR,NA,NA,NA,NA,48.73255,-3.45542
FR-01,FR_01_XX_pseudo_no_3,La Motta,NA,Lannion,Côtes-d'Armor,France,FR,NA,NA,NA,NA,48.73255,-3.45542
FR-01,FR_01_XX_pseudo_no_4,La Motta,NA,Lannion,Côtes-d'Armor,France,FR,NA,NA,NA,NA,48.73255,-3.45542
FR-01,FR_01_XX_pseudo_no_5,La Motta,NA,Lannion,Côtes-d'Armor,France,FR,NA,NA,NA,NA,48.73255,-3.45542
FR-01,FR_01_XX_pseudo_no_6,La Motta,NA,Lannion,Côtes-d'Armor,France,FR,NA,NA,NA,NA,48.73255,-3.45542
FR-01,FR_01_XX_pseudo_no_7,La Motta,NA,Lannion,Côtes-d'Armor,France,FR,NA,NA,NA,NA,48.73255,-3.45542
FR-02,FR_02_XX_2_pseudo_no_1,Crec'h-Perros,NA,Perros-Guirec,Côtes-d'Armor,France,FR,NA,NA,NA,NA,48.81454,-3.43963
FR-02,FR_02_XX_2_pseudo_no_2,Crec'h-Perros,NA,Perros-Guirec,Côtes-d'Armor,France,FR,NA,NA,NA,NA,48.81454,-3.43963
FR-02,FR_02_XX_2_pseudo_no_3,Crec'h-Perros,NA,Perros-Guirec,Côtes-d'Armor,France,FR,NA,NA,NA,NA,48.81454,-3.43963
FR-02,FR_02_XX_2_pseudo_no_4,Crec'h-Perros,NA,Perros-Guirec,Côtes-d'Armor,France,FR,NA,NA,NA,NA,48.81454,-3.43963
FR-02,FR_02_XX_2_pseudo_no_5,Crec'h-Perros,NA,Perros-Guirec,Côtes-d'Armor,France,FR,NA,NA,NA,NA,48.81454,-3.43963
FR-02,FR_02_XX_2_pseudo_no_6,Crec'h-Perros,NA,Perros-Guirec,Côtes-d'Armor,France,FR,NA,NA,NA,NA,48.81454,-3.43963
FR-02,FR_02_XX_pseudo_no_1,Crec'h-Perros,NA,Perros-Guirec,Côtes-d'Armor,France,FR,NA,NA,NA,NA,48.81454,-3.43963
FR-02,FR_02_XX_pseudo_no_10,Crec'h-Perros,NA,Perros-Guirec,Côtes-d'Armor,France,FR,NA,NA,NA,NA,48.81454,-3.43963
FR-02,FR_02_XX_pseudo_no_11,Crec'h-Perros,NA,Perros-Guirec,Côtes-d'Armor,France,FR,NA,NA,NA,NA,48.81454,-3.43963
FR-02,FR_02_XX_pseudo_no_2,Crec'h-Perros,NA,Perros-Guirec,Côtes-d'Armor,France,FR,NA,NA,NA,NA,48.81454,-3.43963
FR-02,FR_02_XX_pseudo_no_3,Crec'h-Perros,NA,Perros-Guirec,Côtes-d'Armor,France,FR,NA,NA,NA,NA,48.81454,-3.43963
FR-02,FR_02_XX_pseudo_no_4,Crec'h-Perros,NA,Perros-Guirec,Côtes-d'Armor,France,FR,NA,NA,NA,NA,48.81454,-3.43963
FR-02,FR_02_XX_pseudo_no_5,Crec'h-Perros,NA,Perros-Guirec,Côtes-d'Armor,France,FR,NA,NA,NA,NA,48.81454,-3.43963
FR-02,FR_02_XX_pseudo_no_6,Crec'h-Perros,NA,Perros-Guirec,Côtes-d'Armor,France,FR,NA,NA,NA,NA,48.81454,-3.43963
FR-02,FR_02_XX_pseudo_no_7,Crec'h-Perros,NA,Perros-Guirec,Côtes-d'Armor,France,FR,NA,NA,NA,NA,48.81454,-3.43963
FR-02,FR_02_XX_pseudo_no_8,Crec'h-Perros,NA,Perros-Guirec,Côtes-d'Armor,France,FR,NA,NA,NA,NA,48.81454,-3.43963
FR-02,FR_02_XX_pseudo_no_9,Crec'h-Perros,NA,Perros-Guirec,Côtes-d'Armor,France,FR,NA,NA,NA,NA,48.81454,-3.43963
FR-03,FR_03_XX_pseudo_no_1,Mouden-Bras,NA,Pleudaniel,Côtes-d'Armor,France,FR,NA,NA,NA,NA,48.76644,-3.14033
FR-03,FR_03_XX_pseudo_no_10,Mouden-Bras,NA,Pleudaniel,Côtes-d'Armor,France,FR,NA,NA,NA,NA,48.76644,-3.14033
FR-03,FR_03_XX_pseudo_no_11,Mouden-Bras,NA,Pleudaniel,Côtes-d'Armor,France,FR,NA,NA,NA,NA,48.76644,-3.14033
FR-03,FR_03_XX_pseudo_no_12,Mouden-Bras,NA,Pleudaniel,Côtes-d'Armor,France,FR,NA,NA,NA,NA,48.76644,-3.14033
FR-03,FR_03_XX_pseudo_no_13,Mouden-Bras,NA,Pleudaniel,Côtes-d'Armor,France,FR,NA,NA,NA,NA,48.76644,-3.14033
FR-03,FR_03_XX_pseudo_no_14,Mouden-Bras,NA,Pleudaniel,Côtes-d'Armor,France,FR,NA,NA,NA,NA,48.76644,-3.14033
FR-03,FR_03_XX_pseudo_no_15,Mouden-Bras,NA,Pleudaniel,Côtes-d'Armor,France,FR,NA,NA,NA,NA,48.76644,-3.14033
FR-03,FR_03_XX_pseudo_no_16,Mouden-Bras,NA,Pleudaniel,Côtes-d'Armor,France,FR,NA,NA,NA,NA,48.76644,-3.14033
FR-03,FR_03_XX_pseudo_no_17,Mouden-Bras,NA,Pleudaniel,Côtes-d'Armor,France,FR,NA,NA,NA,NA,48.76644,-3.14033
FR-03,FR_03_XX_pseudo_no_18,Mouden-Bras,NA,Pleudaniel,Côtes-d'Armor,France,FR,NA,NA,NA,NA,48.76644,-3.14033
FR-03,FR_03_XX_pseudo_no_19,Mouden-Bras,NA,Pleudaniel,Côtes-d'Armor,France,FR,NA,NA,NA,NA,48.76644,-3.14033
FR-03,FR_03_XX_pseudo_no_2,Mouden-Bras,NA,Pleudaniel,Côtes-d'Armor,France,FR,NA,NA,NA,NA,48.76644,-3.14033
FR-03,FR_03_XX_pseudo_no_20,Mouden-Bras,NA,Pleudaniel,Côtes-d'Armor,France,FR,NA,NA,NA,NA,48.76644,-3.14033
FR-03,FR_03_XX_pseudo_no_21,Mouden-Bras,NA,Pleudaniel,Côtes-d'Armor,France,FR,NA,NA,NA,NA,48.76644,-3.14033
FR-03,FR_03_XX_pseudo_no_3,Mouden-Bras,NA,Pleudaniel,Côtes-d'Armor,France,FR,NA,NA,NA,NA,48.76644,-3.14033
FR-03,FR_03_XX_pseudo_no_4,Mouden-Bras,NA,Pleudaniel,Côtes-d'Armor,France,FR,NA,NA,NA,NA,48.76644,-3.14033
FR-03,FR_03_XX_pseudo_no_5,Mouden-Bras,NA,Pleudaniel,Côtes-d'Armor,France,FR,NA,NA,NA,NA,48.76644,-3.14033
FR-03,FR_03_XX_pseudo_no_6,Mouden-Bras,NA,Pleudaniel,Côtes-d'Armor,France,FR,NA,NA,NA,NA,48.76644,-3.14033
FR-03,FR_03_XX_pseudo_no_7,Mouden-Bras,NA,Pleudaniel,Côtes-d'Armor,France,FR,NA,NA,NA,NA,48.76644,-3.14033
FR-03,FR_03_XX_pseudo_no_8,Mouden-Bras,NA,Pleudaniel,Côtes-d'Armor,France,FR,NA,NA,NA,NA,48.76644,-3.14033
FR-03,FR_03_XX_pseudo_no_9,Mouden-Bras,NA,Pleudaniel,Côtes-d'Armor,France,FR,NA,NA,NA,NA,48.76644,-3.14033
FR-04,FR_04_XX_pseudo_no_1,Rumédon,NA,Ploumiliau,Côtes-d'Armor,France,FR,NA,NA,NA,NA,48.68083,-3.52277
FR-04,FR_04_XX_pseudo_no_10,Rumédon,NA,Ploumiliau,Côtes-d'Armor,France,FR,NA,NA,NA,NA,48.68083,-3.52277
FR-04,FR_04_XX_pseudo_no_11,Rumédon,NA,Ploumiliau,Côtes-d'Armor,France,FR,NA,NA,NA,NA,48.68083,-3.52277
FR-04,FR_04_XX_pseudo_no_12,Rumédon,NA,Ploumiliau,Côtes-d'Armor,France,FR,NA,NA,NA,NA,48.68083,-3.52277
FR-04,FR_04_XX_pseudo_no_13,Rumédon,NA,Ploumiliau,Côtes-d'Armor,France,FR,NA,NA,NA,NA,48.68083,-3.52277
FR-04,FR_04_XX_pseudo_no_14,Rumédon,NA,Ploumiliau,Côtes-d'Armor,France,FR,NA,NA,NA,NA,48.68083,-3.52277
FR-04,FR_04_XX_pseudo_no_15,Rumédon,NA,Ploumiliau,Côtes-d'Armor,France,FR,NA,NA,NA,NA,48.68083,-3.52277
FR-04,FR_04_XX_pseudo_no_16,Rumédon,NA,Ploumiliau,Côtes-d'Armor,France,FR,NA,NA,NA,NA,48.68083,-3.52277
FR-04,FR_04_XX_pseudo_no_17,Rumédon,NA,Ploumiliau,Côtes-d'Armor,France,FR,NA,NA,NA,NA,48.68083,-3.52277
FR-04,FR_04_XX_pseudo_no_18,Rumédon,NA,Ploumiliau,Côtes-d'Armor,France,FR,NA,NA,NA,NA,48.68083,-3.52277
FR-04,FR_04_XX_pseudo_no_19,Rumédon,NA,Ploumiliau,Côtes-d'Armor,France,FR,NA,NA,NA,NA,48.68083,-3.52277
FR-04,FR_04_XX_pseudo_no_2,Rumédon,NA,Ploumiliau,Côtes-d'Armor,France,FR,NA,NA,NA,NA,48.68083,-3.52277
FR-04,FR_04_XX_pseudo_no_20,Rumédon,NA,Ploumiliau,Côtes-d'Armor,France,FR,NA,NA,NA,NA,48.68083,-3.52277
FR-04,FR_04_XX_pseudo_no_3,Rumédon,NA,Ploumiliau,Côtes-d'Armor,France,FR,NA,NA,NA,NA,48.68083,-3.52277
FR-04,FR_04_XX_pseudo_no_4,Rumédon,NA,Ploumiliau,Côtes-d'Armor,France,FR,NA,NA,NA,NA,48.68083,-3.52277
FR-04,FR_04_XX_pseudo_no_5,Rumédon,NA,Ploumiliau,Côtes-d'Armor,France,FR,NA,NA,NA,NA,48.68083,-3.52277
FR-04,FR_04_XX_pseudo_no_6,Rumédon,NA,Ploumiliau,Côtes-d'Armor,France,FR,NA,NA,NA,NA,48.68083,-3.52277
FR-04,FR_04_XX_pseudo_no_7,Rumédon,NA,Ploumiliau,Côtes-d'Armor,France,FR,NA,NA,NA,NA,48.68083,-3.52277
FR-04,FR_04_XX_pseudo_no_8,Rumédon,NA,Ploumiliau,Côtes-d'Armor,France,FR,NA,NA,NA,NA,48.68083,-3.52277
FR-04,FR_04_XX_pseudo_no_9,Rumédon,NA,Ploumiliau,Côtes-d'Armor,France,FR,NA,NA,NA,NA,48.68083,-3.52277
FR-05,FR_05_XX_pseudo_no_1,Tossen-Kergourognon,NA,Prat,Côtes-d'Armor,France,FR,NA,NA,NA,NA,48.6775,-3.29638888888889
FR-05,FR_05_XX_pseudo_no_2,Tossen-Kergourognon,NA,Prat,Côtes-d'Armor,France,FR,NA,NA,NA,NA,48.6775,-3.29638888888889
FR-05,FR_05_XX_pseudo_no_3,Tossen-Kergourognon,NA,Prat,Côtes-d'Armor,France,FR,NA,NA,NA,NA,48.6775,-3.29638888888889
FR-05,FR_05_XX_pseudo_no_4,Tossen-Kergourognon,NA,Prat,Côtes-d'Armor,France,FR,NA,NA,NA,NA,48.6775,-3.29638888888889
FR-06,FR_06_XX_pseudo_no_1,Tossen-Rugouec,NA,Prat,Côtes-d'Armor,France,FR,NA,NA,NA,NA,48.6775,-3.29638888888889
FR-06,FR_06_XX_pseudo_no_10,Tossen-Rugouec,NA,Prat,Côtes-d'Armor,France,FR,NA,NA,NA,NA,48.6775,-3.29638888888889
FR-06,FR_06_XX_pseudo_no_11,Tossen-Rugouec,NA,Prat,Côtes-d'Armor,France,FR,NA,NA,NA,NA,48.6775,-3.29638888888889
FR-06,FR_06_XX_pseudo_no_12,Tossen-Rugouec,NA,Prat,Côtes-d'Armor,France,FR,NA,NA,NA,NA,48.6775,-3.29638888888889
FR-06,FR_06_XX_pseudo_no_13,Tossen-Rugouec,NA,Prat,Côtes-d'Armor,France,FR,NA,NA,NA,NA,48.6775,-3.29638888888889
FR-06,FR_06_XX_pseudo_no_14,Tossen-Rugouec,NA,Prat,Côtes-d'Armor,France,FR,NA,NA,NA,NA,48.6775,-3.29638888888889
FR-06,FR_06_XX_pseudo_no_15,Tossen-Rugouec,NA,Prat,Côtes-d'Armor,France,FR,NA,NA,NA,NA,48.6775,-3.29638888888889
FR-06,FR_06_XX_pseudo_no_16,Tossen-Rugouec,NA,Prat,Côtes-d'Armor,France,FR,NA,NA,NA,NA,48.6775,-3.29638888888889
FR-06,FR_06_XX_pseudo_no_17,Tossen-Rugouec,NA,Prat,Côtes-d'Armor,France,FR,NA,NA,NA,NA,48.6775,-3.29638888888889
FR-06,FR_06_XX_pseudo_no_18,Tossen-Rugouec,NA,Prat,Côtes-d'Armor,France,FR,NA,NA,NA,NA,48.6775,-3.29638888888889
FR-06,FR_06_XX_pseudo_no_19,Tossen-Rugouec,NA,Prat,Côtes-d'Armor,France,FR,NA,NA,NA,NA,48.6775,-3.29638888888889
FR-06,FR_06_XX_pseudo_no_2,Tossen-Rugouec,NA,Prat,Côtes-d'Armor,France,FR,NA,NA,NA,NA,48.6775,-3.29638888888889
FR-06,FR_06_XX_pseudo_no_20,Tossen-Rugouec,NA,Prat,Côtes-d'Armor,France,FR,NA,NA,NA,NA,48.6775,-3.29638888888889
FR-06,FR_06_XX_pseudo_no_21,Tossen-Rugouec,NA,Prat,Côtes-d'Armor,France,FR,NA,NA,NA,NA,48.6775,-3.29638888888889
FR-06,FR_06_XX_pseudo_no_22,Tossen-Rugouec,NA,Prat,Côtes-d'Armor,France,FR,NA,NA,NA,NA,48.6775,-3.29638888888889
FR-06,FR_06_XX_pseudo_no_23,Tossen-Rugouec,NA,Prat,Côtes-d'Armor,France,FR,NA,NA,NA,NA,48.6775,-3.29638888888889
FR-06,FR_06_XX_pseudo_no_3,Tossen-Rugouec,NA,Prat,Côtes-d'Armor,France,FR,NA,NA,NA,NA,48.6775,-3.29638888888889
FR-06,FR_06_XX_pseudo_no_4,Tossen-Rugouec,NA,Prat,Côtes-d'Armor,France,FR,NA,NA,NA,NA,48.6775,-3.29638888888889
FR-06,FR_06_XX_pseudo_no_5,Tossen-Rugouec,NA,Prat,Côtes-d'Armor,France,FR,NA,NA,NA,NA,48.6775,-3.29638888888889
FR-06,FR_06_XX_pseudo_no_6,Tossen-Rugouec,NA,Prat,Côtes-d'Armor,France,FR,NA,NA,NA,NA,48.6775,-3.29638888888889
FR-06,FR_06_XX_pseudo_no_7,Tossen-Rugouec,NA,Prat,Côtes-d'Armor,France,FR,NA,NA,NA,NA,48.6775,-3.29638888888889
FR-06,FR_06_XX_pseudo_no_8,Tossen-Rugouec,NA,Prat,Côtes-d'Armor,France,FR,NA,NA,NA,NA,48.6775,-3.29638888888889
FR-06,FR_06_XX_pseudo_no_9,Tossen-Rugouec,NA,Prat,Côtes-d'Armor,France,FR,NA,NA,NA,NA,48.6775,-3.29638888888889
FR-07,FR_07_XX_2_pseudo_no_1,Brun-Bras,NA,Saint-Adrien,Côtes-d'Armor,France,FR,NA,NA,NA,NA,48.4895,-3.13075
FR-07,FR_07_XX_2_pseudo_no_10,Brun-Bras,NA,Saint-Adrien,Côtes-d'Armor,France,FR,NA,NA,NA,NA,48.4895,-3.13075
FR-07,FR_07_XX_2_pseudo_no_11,Brun-Bras,NA,Saint-Adrien,Côtes-d'Armor,France,FR,NA,NA,NA,NA,48.4895,-3.13075
FR-07,FR_07_XX_2_pseudo_no_2,Brun-Bras,NA,Saint-Adrien,Côtes-d'Armor,France,FR,NA,NA,NA,NA,48.4895,-3.13075
FR-07,FR_07_XX_2_pseudo_no_3,Brun-Bras,NA,Saint-Adrien,Côtes-d'Armor,France,FR,NA,NA,NA,NA,48.4895,-3.13075
FR-07,FR_07_XX_2_pseudo_no_4,Brun-Bras,NA,Saint-Adrien,Côtes-d'Armor,France,FR,NA,NA,NA,NA,48.4895,-3.13075
FR-07,FR_07_XX_2_pseudo_no_5,Brun-Bras,NA,Saint-Adrien,Côtes-d'Armor,France,FR,NA,NA,NA,NA,48.4895,-3.13075
FR-07,FR_07_XX_2_pseudo_no_6,Brun-Bras,NA,Saint-Adrien,Côtes-d'Armor,France,FR,NA,NA,NA,NA,48.4895,-3.13075
FR-07,FR_07_XX_2_pseudo_no_7,Brun-Bras,NA,Saint-Adrien,Côtes-d'Armor,France,FR,NA,NA,NA,NA,48.4895,-3.13075
FR-07,FR_07_XX_2_pseudo_no_8,Brun-Bras,NA,Saint-Adrien,Côtes-d'Armor,France,FR,NA,NA,NA,NA,48.4895,-3.13075
FR-07,FR_07_XX_2_pseudo_no_9,Brun-Bras,NA,Saint-Adrien,Côtes-d'Armor,France,FR,NA,NA,NA,NA,48.4895,-3.13075
FR-07,FR_07_XX_pseudo_no_1,Brun-Bras,NA,Saint-Adrien,Côtes-d'Armor,France,FR,NA,NA,NA,NA,48.4895,-3.13075
FR-07,FR_07_XX_pseudo_no_10,Brun-Bras,NA,Saint-Adrien,Côtes-d'Armor,France,FR,NA,NA,NA,NA,48.4895,-3.13075
FR-07,FR_07_XX_pseudo_no_11,Brun-Bras,NA,Saint-Adrien,Côtes-d'Armor,France,FR,NA,NA,NA,NA,48.4895,-3.13075
FR-07,FR_07_XX_pseudo_no_12,Brun-Bras,NA,Saint-Adrien,Côtes-d'Armor,France,FR,NA,NA,NA,NA,48.4895,-3.13075
FR-07,FR_07_XX_pseudo_no_13,Brun-Bras,NA,Saint-Adrien,Côtes-d'Armor,France,FR,NA,NA,NA,NA,48.4895,-3.13075
FR-07,FR_07_XX_pseudo_no_14,Brun-Bras,NA,Saint-Adrien,Côtes-d'Armor,France,FR,NA,NA,NA,NA,48.4895,-3.13075
FR-07,FR_07_XX_pseudo_no_15,Brun-Bras,NA,Saint-Adrien,Côtes-d'Armor,France,FR,NA,NA,NA,NA,48.4895,-3.13075
FR-07,FR_07_XX_pseudo_no_16,Brun-Bras,NA,Saint-Adrien,Côtes-d'Armor,France,FR,NA,NA,NA,NA,48.4895,-3.13075
FR-07,FR_07_XX_pseudo_no_17,Brun-Bras,NA,Saint-Adrien,Côtes-d'Armor,France,FR,NA,NA,NA,NA,48.4895,-3.13075
FR-07,FR_07_XX_pseudo_no_18,Brun-Bras,NA,Saint-Adrien,Côtes-d'Armor,France,FR,NA,NA,NA,NA,48.4895,-3.13075
FR-07,FR_07_XX_pseudo_no_19,Brun-Bras,NA,Saint-Adrien,Côtes-d'Armor,France,FR,NA,NA,NA,NA,48.4895,-3.13075
FR-07,FR_07_XX_pseudo_no_2,Brun-Bras,NA,Saint-Adrien,Côtes-d'Armor,France,FR,NA,NA,NA,NA,48.4895,-3.13075
FR-07,FR_07_XX_pseudo_no_20,Brun-Bras,NA,Saint-Adrien,Côtes-d'Armor,France,FR,NA,NA,NA,NA,48.4895,-3.13075
FR-07,FR_07_XX_pseudo_no_21,Brun-Bras,NA,Saint-Adrien,Côtes-d'Armor,France,FR,NA,NA,NA,NA,48.4895,-3.13075
FR-07,FR_07_XX_pseudo_no_22,Brun-Bras,NA,Saint-Adrien,Côtes-d'Armor,France,FR,NA,NA,NA,NA,48.4895,-3.13075
FR-07,FR_07_XX_pseudo_no_23,Brun-Bras,NA,Saint-Adrien,Côtes-d'Armor,France,FR,NA,NA,NA,NA,48.4895,-3.13075
FR-07,FR_07_XX_pseudo_no_24,Brun-Bras,NA,Saint-Adrien,Côtes-d'Armor,France,FR,NA,NA,NA,NA,48.4895,-3.13075
FR-07,FR_07_XX_pseudo_no_25,Brun-Bras,NA,Saint-Adrien,Côtes-d'Armor,France,FR,NA,NA,NA,NA,48.4895,-3.13075
FR-07,FR_07_XX_pseudo_no_26,Brun-Bras,NA,Saint-Adrien,Côtes-d'Armor,France,FR,NA,NA,NA,NA,48.4895,-3.13075
FR-07,FR_07_XX_pseudo_no_27,Brun-Bras,NA,Saint-Adrien,Côtes-d'Armor,France,FR,NA,NA,NA,NA,48.4895,-3.13075
FR-07,FR_07_XX_pseudo_no_28,Brun-Bras,NA,Saint-Adrien,Côtes-d'Armor,France,FR,NA,NA,NA,NA,48.4895,-3.13075
FR-07,FR_07_XX_pseudo_no_3,Brun-Bras,NA,Saint-Adrien,Côtes-d'Armor,France,FR,NA,NA,NA,NA,48.4895,-3.13075
FR-07,FR_07_XX_pseudo_no_4,Brun-Bras,NA,Saint-Adrien,Côtes-d'Armor,France,FR,NA,NA,NA,NA,48.4895,-3.13075
FR-07,FR_07_XX_pseudo_no_5,Brun-Bras,NA,Saint-Adrien,Côtes-d'Armor,France,FR,NA,NA,NA,NA,48.4895,-3.13075
FR-07,FR_07_XX_pseudo_no_6,Brun-Bras,NA,Saint-Adrien,Côtes-d'Armor,France,FR,NA,NA,NA,NA,48.4895,-3.13075
FR-07,FR_07_XX_pseudo_no_7,Brun-Bras,NA,Saint-Adrien,Côtes-d'Armor,France,FR,NA,NA,NA,NA,48.4895,-3.13075
FR-07,FR_07_XX_pseudo_no_8,Brun-Bras,NA,Saint-Adrien,Côtes-d'Armor,France,FR,NA,NA,NA,NA,48.4895,-3.13075
FR-07,FR_07_XX_pseudo_no_9,Brun-Bras,NA,Saint-Adrien,Côtes-d'Armor,France,FR,NA,NA,NA,NA,48.4895,-3.13075
FR-08,FR_08_XX_pseudo_no_1,Porz-ar-Saoz,NA,Trémel,Côtes-d'Armor,France,FR,NA,NA,NA,NA,48.6,-3.61667
FR-08,FR_08_XX_pseudo_no_10,Porz-ar-Saoz,NA,Trémel,Côtes-d'Armor,France,FR,NA,NA,NA,NA,48.6,-3.61667
FR-08,FR_08_XX_pseudo_no_11,Porz-ar-Saoz,NA,Trémel,Côtes-d'Armor,France,FR,NA,NA,NA,NA,48.6,-3.61667
FR-08,FR_08_XX_pseudo_no_2,Porz-ar-Saoz,NA,Trémel,Côtes-d'Armor,France,FR,NA,NA,NA,NA,48.6,-3.61667
FR-08,FR_08_XX_pseudo_no_3,Porz-ar-Saoz,NA,Trémel,Côtes-d'Armor,France,FR,NA,NA,NA,NA,48.6,-3.61667
FR-08,FR_08_XX_pseudo_no_4,Porz-ar-Saoz,NA,Trémel,Côtes-d'Armor,France,FR,NA,NA,NA,NA,48.6,-3.61667
FR-08,FR_08_XX_pseudo_no_5,Porz-ar-Saoz,NA,Trémel,Côtes-d'Armor,France,FR,NA,NA,NA,NA,48.6,-3.61667
FR-08,FR_08_XX_pseudo_no_6,Porz-ar-Saoz,NA,Trémel,Côtes-d'Armor,France,FR,NA,NA,NA,NA,48.6,-3.61667
FR-08,FR_08_XX_pseudo_no_7,Porz-ar-Saoz,NA,Trémel,Côtes-d'Armor,France,FR,NA,NA,NA,NA,48.6,-3.61667
FR-08,FR_08_XX_pseudo_no_8,Porz-ar-Saoz,NA,Trémel,Côtes-d'Armor,France,FR,NA,NA,NA,NA,48.6,-3.61667
FR-08,FR_08_XX_pseudo_no_9,Porz-ar-Saoz,NA,Trémel,Côtes-d'Armor,France,FR,NA,NA,NA,NA,48.6,-3.61667
FR-09,FR_09_XX_pseudo_no_1,Tossen-Maharit,NA,Trévérec,Côtes-d'Armor,France,FR,NA,NA,NA,NA,48.65608,-3.05883
FR-09,FR_09_XX_pseudo_no_10,Tossen-Maharit,NA,Trévérec,Côtes-d'Armor,France,FR,NA,NA,NA,NA,48.65608,-3.05883
FR-09,FR_09_XX_pseudo_no_11,Tossen-Maharit,NA,Trévérec,Côtes-d'Armor,France,FR,NA,NA,NA,NA,48.65608,-3.05883
FR-09,FR_09_XX_pseudo_no_12,Tossen-Maharit,NA,Trévérec,Côtes-d'Armor,France,FR,NA,NA,NA,NA,48.65608,-3.05883
FR-09,FR_09_XX_pseudo_no_13,Tossen-Maharit,NA,Trévérec,Côtes-d'Armor,France,FR,NA,NA,NA,NA,48.65608,-3.05883
FR-09,FR_09_XX_pseudo_no_14,Tossen-Maharit,NA,Trévérec,Côtes-d'Armor,France,FR,NA,NA,NA,NA,48.65608,-3.05883
FR-09,FR_09_XX_pseudo_no_15,Tossen-Maharit,NA,Trévérec,Côtes-d'Armor,France,FR,NA,NA,NA,NA,48.65608,-3.05883
FR-09,FR_09_XX_pseudo_no_16,Tossen-Maharit,NA,Trévérec,Côtes-d'Armor,France,FR,NA,NA,NA,NA,48.65608,-3.05883
FR-09,FR_09_XX_pseudo_no_17,Tossen-Maharit,NA,Trévérec,Côtes-d'Armor,France,FR,NA,NA,NA,NA,48.65608,-3.05883
FR-09,FR_09_XX_pseudo_no_2,Tossen-Maharit,NA,Trévérec,Côtes-d'Armor,France,FR,NA,NA,NA,NA,48.65608,-3.05883
FR-09,FR_09_XX_pseudo_no_3,Tossen-Maharit,NA,Trévérec,Côtes-d'Armor,France,FR,NA,NA,NA,NA,48.65608,-3.05883
FR-09,FR_09_XX_pseudo_no_4,Tossen-Maharit,NA,Trévérec,Côtes-d'Armor,France,FR,NA,NA,NA,NA,48.65608,-3.05883
FR-09,FR_09_XX_pseudo_no_5,Tossen-Maharit,NA,Trévérec,Côtes-d'Armor,France,FR,NA,NA,NA,NA,48.65608,-3.05883
FR-09,FR_09_XX_pseudo_no_6,Tossen-Maharit,NA,Trévérec,Côtes-d'Armor,France,FR,NA,NA,NA,NA,48.65608,-3.05883
FR-09,FR_09_XX_pseudo_no_7,Tossen-Maharit,NA,Trévérec,Côtes-d'Armor,France,FR,NA,NA,NA,NA,48.65608,-3.05883
FR-09,FR_09_XX_pseudo_no_8,Tossen-Maharit,NA,Trévérec,Côtes-d'Armor,France,FR,NA,NA,NA,NA,48.65608,-3.05883
FR-09,FR_09_XX_pseudo_no_9,Tossen-Maharit,NA,Trévérec,Côtes-d'Armor,France,FR,NA,NA,NA,NA,48.65608,-3.05883
FR-11,FR_11_01_pseudo_no_1,Coatanéa,NA,Bourg-Blanc,Finistère,France,FR,NA,NA,NA,NA,48.49875,-4.50621
FR-13,FR_13_01_pseudo_no_1,Le Rhun / Beuzec-Conq,NA,Concarneau,Finistère,France,FR,NA,NA,NA,NA,47.87536,-3.9189600000000002
FR-15,FR_15_XX_pseudo_no_1,Prat-ar-Simon-Pella,NA,Lannilis,Finistère,France,FR,NA,NA,NA,NA,48.57,-4.52196
FR-15,FR_15_XX_pseudo_no_10,Prat-ar-Simon-Pella,NA,Lannilis,Finistère,France,FR,NA,NA,NA,NA,48.57,-4.52196
FR-15,FR_15_XX_pseudo_no_11,Prat-ar-Simon-Pella,NA,Lannilis,Finistère,France,FR,NA,NA,NA,NA,48.57,-4.52196
FR-15,FR_15_XX_pseudo_no_12,Prat-ar-Simon-Pella,NA,Lannilis,Finistère,France,FR,NA,NA,NA,NA,48.57,-4.52196
FR-15,FR_15_XX_pseudo_no_2,Prat-ar-Simon-Pella,NA,Lannilis,Finistère,France,FR,NA,NA,NA,NA,48.57,-4.52196
FR-15,FR_15_XX_pseudo_no_3,Prat-ar-Simon-Pella,NA,Lannilis,Finistère,France,FR,NA,NA,NA,NA,48.57,-4.52196
FR-15,FR_15_XX_pseudo_no_4,Prat-ar-Simon-Pella,NA,Lannilis,Finistère,France,FR,NA,NA,NA,NA,48.57,-4.52196
FR-15,FR_15_XX_pseudo_no_5,Prat-ar-Simon-Pella,NA,Lannilis,Finistère,France,FR,NA,NA,NA,NA,48.57,-4.52196
FR-15,FR_15_XX_pseudo_no_6,Prat-ar-Simon-Pella,NA,Lannilis,Finistère,France,FR,NA,NA,NA,NA,48.57,-4.52196
FR-15,FR_15_XX_pseudo_no_7,Prat-ar-Simon-Pella,NA,Lannilis,Finistère,France,FR,NA,NA,NA,NA,48.57,-4.52196
FR-15,FR_15_XX_pseudo_no_8,Prat-ar-Simon-Pella,NA,Lannilis,Finistère,France,FR,NA,NA,NA,NA,48.57,-4.52196
FR-15,FR_15_XX_pseudo_no_9,Prat-ar-Simon-Pella,NA,Lannilis,Finistère,France,FR,NA,NA,NA,NA,48.57,-4.52196
FR-16,FR_16_XX_pseudo_no_1,Kerandrèze,NA,Moëlan-sur-Mer,Finistère,France,FR,NA,NA,NA,NA,47.81396,-3.62875
FR-16,FR_16_XX_pseudo_no_2,Kerandrèze,NA,Moëlan-sur-Mer,Finistère,France,FR,NA,NA,NA,NA,47.81396,-3.62875
FR-19,FR_19_XX_pseudo_no_1,Cosmaner,NA,Plonéour-Lanvern,Finistère,France,FR,NA,NA,NA,NA,47.90324,-4.28346
FR-19,FR_19_XX_pseudo_no_2,Cosmaner,NA,Plonéour-Lanvern,Finistère,France,FR,NA,NA,NA,NA,47.90324,-4.28346
FR-19,FR_19_XX_pseudo_no_3,Cosmaner,NA,Plonéour-Lanvern,Finistère,France,FR,NA,NA,NA,NA,47.90324,-4.28346
FR-20,FR_20_XX_2_pseudo_no_1,Fao-Youen,NA,Plonéour-Lanvern,Finistère,France,FR,NA,NA,NA,NA,47.90324,-4.28346
FR-20,FR_20_XX_2_pseudo_no_10,Fao-Youen,NA,Plonéour-Lanvern,Finistère,France,FR,NA,NA,NA,NA,47.90324,-4.28346
FR-20,FR_20_XX_2_pseudo_no_2,Fao-Youen,NA,Plonéour-Lanvern,Finistère,France,FR,NA,NA,NA,NA,47.90324,-4.28346
FR-20,FR_20_XX_2_pseudo_no_3,Fao-Youen,NA,Plonéour-Lanvern,Finistère,France,FR,NA,NA,NA,NA,47.90324,-4.28346
FR-20,FR_20_XX_2_pseudo_no_4,Fao-Youen,NA,Plonéour-Lanvern,Finistère,France,FR,NA,NA,NA,NA,47.90324,-4.28346
FR-20,FR_20_XX_2_pseudo_no_5,Fao-Youen,NA,Plonéour-Lanvern,Finistère,France,FR,NA,NA,NA,NA,47.90324,-4.28346
FR-20,FR_20_XX_2_pseudo_no_6,Fao-Youen,NA,Plonéour-Lanvern,Finistère,France,FR,NA,NA,NA,NA,47.90324,-4.28346
FR-20,FR_20_XX_2_pseudo_no_7,Fao-Youen,NA,Plonéour-Lanvern,Finistère,France,FR,NA,NA,NA,NA,47.90324,-4.28346
FR-20,FR_20_XX_2_pseudo_no_8,Fao-Youen,NA,Plonéour-Lanvern,Finistère,France,FR,NA,NA,NA,NA,47.90324,-4.28346
FR-20,FR_20_XX_2_pseudo_no_9,Fao-Youen,NA,Plonéour-Lanvern,Finistère,France,FR,NA,NA,NA,NA,47.90324,-4.28346
FR-20,FR_20_XX_pseudo_no_1,Fao-Youen,NA,Plonéour-Lanvern,Finistère,France,FR,NA,NA,NA,NA,47.90324,-4.28346
FR-20,FR_20_XX_pseudo_no_10,Fao-Youen,NA,Plonéour-Lanvern,Finistère,France,FR,NA,NA,NA,NA,47.90324,-4.28346
FR-20,FR_20_XX_pseudo_no_11,Fao-Youen,NA,Plonéour-Lanvern,Finistère,France,FR,NA,NA,NA,NA,47.90324,-4.28346
FR-20,FR_20_XX_pseudo_no_12,Fao-Youen,NA,Plonéour-Lanvern,Finistère,France,FR,NA,NA,NA,NA,47.90324,-4.28346
FR-20,FR_20_XX_pseudo_no_2,Fao-Youen,NA,Plonéour-Lanvern,Finistère,France,FR,NA,NA,NA,NA,47.90324,-4.28346
FR-20,FR_20_XX_pseudo_no_3,Fao-Youen,NA,Plonéour-Lanvern,Finistère,France,FR,NA,NA,NA,NA,47.90324,-4.28346
FR-20,FR_20_XX_pseudo_no_4,Fao-Youen,NA,Plonéour-Lanvern,Finistère,France,FR,NA,NA,NA,NA,47.90324,-4.28346
FR-20,FR_20_XX_pseudo_no_5,Fao-Youen,NA,Plonéour-Lanvern,Finistère,France,FR,NA,NA,NA,NA,47.90324,-4.28346
FR-20,FR_20_XX_pseudo_no_6,Fao-Youen,NA,Plonéour-Lanvern,Finistère,France,FR,NA,NA,NA,NA,47.90324,-4.28346
FR-20,FR_20_XX_pseudo_no_7,Fao-Youen,NA,Plonéour-Lanvern,Finistère,France,FR,NA,NA,NA,NA,47.90324,-4.28346
FR-20,FR_20_XX_pseudo_no_8,Fao-Youen,NA,Plonéour-Lanvern,Finistère,France,FR,NA,NA,NA,NA,47.90324,-4.28346
FR-20,FR_20_XX_pseudo_no_9,Fao-Youen,NA,Plonéour-Lanvern,Finistère,France,FR,NA,NA,NA,NA,47.90324,-4.28346
FR-21,FR_21_XX_2_pseudo_no_1,Kerhué-Bras,NA,Plonéour-Lanvern,Finistère,France,FR,NA,NA,NA,NA,47.90324,-4.28346
FR-21,FR_21_XX_2_pseudo_no_10,Kerhué-Bras,NA,Plonéour-Lanvern,Finistère,France,FR,NA,NA,NA,NA,47.90324,-4.28346
FR-21,FR_21_XX_2_pseudo_no_11,Kerhué-Bras,NA,Plonéour-Lanvern,Finistère,France,FR,NA,NA,NA,NA,47.90324,-4.28346
FR-21,FR_21_XX_2_pseudo_no_12,Kerhué-Bras,NA,Plonéour-Lanvern,Finistère,France,FR,NA,NA,NA,NA,47.90324,-4.28346
FR-21,FR_21_XX_2_pseudo_no_2,Kerhué-Bras,NA,Plonéour-Lanvern,Finistère,France,FR,NA,NA,NA,NA,47.90324,-4.28346
FR-21,FR_21_XX_2_pseudo_no_3,Kerhué-Bras,NA,Plonéour-Lanvern,Finistère,France,FR,NA,NA,NA,NA,47.90324,-4.28346
FR-21,FR_21_XX_2_pseudo_no_4,Kerhué-Bras,NA,Plonéour-Lanvern,Finistère,France,FR,NA,NA,NA,NA,47.90324,-4.28346
FR-21,FR_21_XX_2_pseudo_no_5,Kerhué-Bras,NA,Plonéour-Lanvern,Finistère,France,FR,NA,NA,NA,NA,47.90324,-4.28346
FR-21,FR_21_XX_2_pseudo_no_6,Kerhué-Bras,NA,Plonéour-Lanvern,Finistère,France,FR,NA,NA,NA,NA,47.90324,-4.28346
FR-21,FR_21_XX_2_pseudo_no_7,Kerhué-Bras,NA,Plonéour-Lanvern,Finistère,France,FR,NA,NA,NA,NA,47.90324,-4.28346
FR-21,FR_21_XX_2_pseudo_no_8,Kerhué-Bras,NA,Plonéour-Lanvern,Finistère,France,FR,NA,NA,NA,NA,47.90324,-4.28346
FR-21,FR_21_XX_2_pseudo_no_9,Kerhué-Bras,NA,Plonéour-Lanvern,Finistère,France,FR,NA,NA,NA,NA,47.90324,-4.28346
FR-21,FR_21_XX_pseudo_no_1,Kerhué-Bras,NA,Plonéour-Lanvern,Finistère,France,FR,NA,NA,NA,NA,47.90324,-4.28346
FR-21,FR_21_XX_pseudo_no_10,Kerhué-Bras,NA,Plonéour-Lanvern,Finistère,France,FR,NA,NA,NA,NA,47.90324,-4.28346
FR-21,FR_21_XX_pseudo_no_11,Kerhué-Bras,NA,Plonéour-Lanvern,Finistère,France,FR,NA,NA,NA,NA,47.90324,-4.28346
FR-21,FR_21_XX_pseudo_no_12,Kerhué-Bras,NA,Plonéour-Lanvern,Finistère,France,FR,NA,NA,NA,NA,47.90324,-4.28346
FR-21,FR_21_XX_pseudo_no_13,Kerhué-Bras,NA,Plonéour-Lanvern,Finistère,France,FR,NA,NA,NA,NA,47.90324,-4.28346
FR-21,FR_21_XX_pseudo_no_14,Kerhué-Bras,NA,Plonéour-Lanvern,Finistère,France,FR,NA,NA,NA,NA,47.90324,-4.28346
FR-21,FR_21_XX_pseudo_no_15,Kerhué-Bras,NA,Plonéour-Lanvern,Finistère,France,FR,NA,NA,NA,NA,47.90324,-4.28346
FR-21,FR_21_XX_pseudo_no_2,Kerhué-Bras,NA,Plonéour-Lanvern,Finistère,France,FR,NA,NA,NA,NA,47.90324,-4.28346
FR-21,FR_21_XX_pseudo_no_3,Kerhué-Bras,NA,Plonéour-Lanvern,Finistère,France,FR,NA,NA,NA,NA,47.90324,-4.28346
FR-21,FR_21_XX_pseudo_no_4,Kerhué-Bras,NA,Plonéour-Lanvern,Finistère,France,FR,NA,NA,NA,NA,47.90324,-4.28346
FR-21,FR_21_XX_pseudo_no_5,Kerhué-Bras,NA,Plonéour-Lanvern,Finistère,France,FR,NA,NA,NA,NA,47.90324,-4.28346
FR-21,FR_21_XX_pseudo_no_6,Kerhué-Bras,NA,Plonéour-Lanvern,Finistère,France,FR,NA,NA,NA,NA,47.90324,-4.28346
FR-21,FR_21_XX_pseudo_no_7,Kerhué-Bras,NA,Plonéour-Lanvern,Finistère,France,FR,NA,NA,NA,NA,47.90324,-4.28346
FR-21,FR_21_XX_pseudo_no_8,Kerhué-Bras,NA,Plonéour-Lanvern,Finistère,France,FR,NA,NA,NA,NA,47.90324,-4.28346
FR-21,FR_21_XX_pseudo_no_9,Kerhué-Bras,NA,Plonéour-Lanvern,Finistère,France,FR,NA,NA,NA,NA,47.90324,-4.28346
FR-22,FR_22_XX_pseudo_no_1,Kernic,NA,Plouescat,Finistère,France,FR,NA,NA,NA,NA,48.65668,-4.17471
FR-22,FR_22_XX_pseudo_no_2,Kernic,NA,Plouescat,Finistère,France,FR,NA,NA,NA,NA,48.65668,-4.17471
FR-22,FR_22_XX_pseudo_no_3,Kernic,NA,Plouescat,Finistère,France,FR,NA,NA,NA,NA,48.65668,-4.17471
FR-22,FR_22_XX_pseudo_no_4,Kernic,NA,Plouescat,Finistère,France,FR,NA,NA,NA,NA,48.65668,-4.17471
FR-23,FR_23_XX_2_pseudo_no_1,Kersandy,NA,Plouhinec,Finistère,France,FR,NA,NA,NA,NA,48.01443,-4.48688
FR-23,FR_23_XX_2_pseudo_no_10,Kersandy,NA,Plouhinec,Finistère,France,FR,NA,NA,NA,NA,48.01443,-4.48688
FR-23,FR_23_XX_2_pseudo_no_11,Kersandy,NA,Plouhinec,Finistère,France,FR,NA,NA,NA,NA,48.01443,-4.48688
FR-23,FR_23_XX_2_pseudo_no_12,Kersandy,NA,Plouhinec,Finistère,France,FR,NA,NA,NA,NA,48.01443,-4.48688
FR-23,FR_23_XX_2_pseudo_no_13,Kersandy,NA,Plouhinec,Finistère,France,FR,NA,NA,NA,NA,48.01443,-4.48688
FR-23,FR_23_XX_2_pseudo_no_2,Kersandy,NA,Plouhinec,Finistère,France,FR,NA,NA,NA,NA,48.01443,-4.48688
FR-23,FR_23_XX_2_pseudo_no_3,Kersandy,NA,Plouhinec,Finistère,France,FR,NA,NA,NA,NA,48.01443,-4.48688
FR-23,FR_23_XX_2_pseudo_no_4,Kersandy,NA,Plouhinec,Finistère,France,FR,NA,NA,NA,NA,48.01443,-4.48688
FR-23,FR_23_XX_2_pseudo_no_5,Kersandy,NA,Plouhinec,Finistère,France,FR,NA,NA,NA,NA,48.01443,-4.48688
FR-23,FR_23_XX_2_pseudo_no_6,Kersandy,NA,Plouhinec,Finistère,France,FR,NA,NA,NA,NA,48.01443,-4.48688
FR-23,FR_23_XX_2_pseudo_no_7,Kersandy,NA,Plouhinec,Finistère,France,FR,NA,NA,NA,NA,48.01443,-4.48688
FR-23,FR_23_XX_2_pseudo_no_8,Kersandy,NA,Plouhinec,Finistère,France,FR,NA,NA,NA,NA,48.01443,-4.48688
FR-23,FR_23_XX_2_pseudo_no_9,Kersandy,NA,Plouhinec,Finistère,France,FR,NA,NA,NA,NA,48.01443,-4.48688
FR-23,FR_23_XX_pseudo_no_1,Kersandy,NA,Plouhinec,Finistère,France,FR,NA,NA,NA,NA,48.01443,-4.48688
FR-23,FR_23_XX_pseudo_no_10,Kersandy,NA,Plouhinec,Finistère,France,FR,NA,NA,NA,NA,48.01443,-4.48688
FR-23,FR_23_XX_pseudo_no_11,Kersandy,NA,Plouhinec,Finistère,France,FR,NA,NA,NA,NA,48.01443,-4.48688
FR-23,FR_23_XX_pseudo_no_12,Kersandy,NA,Plouhinec,Finistère,France,FR,NA,NA,NA,NA,48.01443,-4.48688
FR-23,FR_23_XX_pseudo_no_2,Kersandy,NA,Plouhinec,Finistère,France,FR,NA,NA,NA,NA,48.01443,-4.48688
FR-23,FR_23_XX_pseudo_no_3,Kersandy,NA,Plouhinec,Finistère,France,FR,NA,NA,NA,NA,48.01443,-4.48688
FR-23,FR_23_XX_pseudo_no_4,Kersandy,NA,Plouhinec,Finistère,France,FR,NA,NA,NA,NA,48.01443,-4.48688
FR-23,FR_23_XX_pseudo_no_5,Kersandy,NA,Plouhinec,Finistère,France,FR,NA,NA,NA,NA,48.01443,-4.48688
FR-23,FR_23_XX_pseudo_no_6,Kersandy,NA,Plouhinec,Finistère,France,FR,NA,NA,NA,NA,48.01443,-4.48688
FR-23,FR_23_XX_pseudo_no_7,Kersandy,NA,Plouhinec,Finistère,France,FR,NA,NA,NA,NA,48.01443,-4.48688
FR-23,FR_23_XX_pseudo_no_8,Kersandy,NA,Plouhinec,Finistère,France,FR,NA,NA,NA,NA,48.01443,-4.48688
FR-23,FR_23_XX_pseudo_no_9,Kersandy,NA,Plouhinec,Finistère,France,FR,NA,NA,NA,NA,48.01443,-4.48688
FR-24,FR_24_XX_pseudo_no_1,Lescongar,NA,Plouhinec,Finistère,France,FR,NA,NA,NA,NA,48.01443,-4.48688
FR-24,FR_24_XX_pseudo_no_10,Lescongar,NA,Plouhinec,Finistère,France,FR,NA,NA,NA,NA,48.01443,-4.48688
FR-24,FR_24_XX_pseudo_no_11,Lescongar,NA,Plouhinec,Finistère,France,FR,NA,NA,NA,NA,48.01443,-4.48688
FR-24,FR_24_XX_pseudo_no_12,Lescongar,NA,Plouhinec,Finistère,France,FR,NA,NA,NA,NA,48.01443,-4.48688
FR-24,FR_24_XX_pseudo_no_2,Lescongar,NA,Plouhinec,Finistère,France,FR,NA,NA,NA,NA,48.01443,-4.48688
FR-24,FR_24_XX_pseudo_no_3,Lescongar,NA,Plouhinec,Finistère,France,FR,NA,NA,NA,NA,48.01443,-4.48688
FR-24,FR_24_XX_pseudo_no_4,Lescongar,NA,Plouhinec,Finistère,France,FR,NA,NA,NA,NA,48.01443,-4.48688
FR-24,FR_24_XX_pseudo_no_5,Lescongar,NA,Plouhinec,Finistère,France,FR,NA,NA,NA,NA,48.01443,-4.48688
FR-24,FR_24_XX_pseudo_no_6,Lescongar,NA,Plouhinec,Finistère,France,FR,NA,NA,NA,NA,48.01443,-4.48688
FR-24,FR_24_XX_pseudo_no_7,Lescongar,NA,Plouhinec,Finistère,France,FR,NA,NA,NA,NA,48.01443,-4.48688
FR-24,FR_24_XX_pseudo_no_8,Lescongar,NA,Plouhinec,Finistère,France,FR,NA,NA,NA,NA,48.01443,-4.48688
FR-24,FR_24_XX_pseudo_no_9,Lescongar,NA,Plouhinec,Finistère,France,FR,NA,NA,NA,NA,48.01443,-4.48688
FR-25,FR_25_01_pseudo_no_1,Le Souc'h,NA,Plouhinec,Finistère,France,FR,NA,NA,NA,NA,48.01443,-4.48688
FR-26,FR_26_XX_2_pseudo_no_1,Cazin,NA,Plouigneau,Finistère,France,FR,NA,NA,NA,NA,48.56726,-3.70142
FR-26,FR_26_XX_2_pseudo_no_2,Cazin,NA,Plouigneau,Finistère,France,FR,NA,NA,NA,NA,48.56726,-3.70142
FR-26,FR_26_XX_2_pseudo_no_3,Cazin,NA,Plouigneau,Finistère,France,FR,NA,NA,NA,NA,48.56726,-3.70142
FR-26,FR_26_XX_2_pseudo_no_4,Cazin,NA,Plouigneau,Finistère,France,FR,NA,NA,NA,NA,48.56726,-3.70142
FR-26,FR_26_XX_2_pseudo_no_5,Cazin,NA,Plouigneau,Finistère,France,FR,NA,NA,NA,NA,48.56726,-3.70142
FR-26,FR_26_XX_2_pseudo_no_6,Cazin,NA,Plouigneau,Finistère,France,FR,NA,NA,NA,NA,48.56726,-3.70142
FR-26,FR_26_XX_2_pseudo_no_7,Cazin,NA,Plouigneau,Finistère,France,FR,NA,NA,NA,NA,48.56726,-3.70142
FR-26,FR_26_XX_2_pseudo_no_8,Cazin,NA,Plouigneau,Finistère,France,FR,NA,NA,NA,NA,48.56726,-3.70142
FR-26,FR_26_XX_pseudo_no_1,Cazin,NA,Plouigneau,Finistère,France,FR,NA,NA,NA,NA,48.56726,-3.70142
FR-26,FR_26_XX_pseudo_no_2,Cazin,NA,Plouigneau,Finistère,France,FR,NA,NA,NA,NA,48.56726,-3.70142
FR-26,FR_26_XX_pseudo_no_3,Cazin,NA,Plouigneau,Finistère,France,FR,NA,NA,NA,NA,48.56726,-3.70142
FR-26,FR_26_XX_pseudo_no_4,Cazin,NA,Plouigneau,Finistère,France,FR,NA,NA,NA,NA,48.56726,-3.70142
FR-26,FR_26_XX_pseudo_no_5,Cazin,NA,Plouigneau,Finistère,France,FR,NA,NA,NA,NA,48.56726,-3.70142
FR-26,FR_26_XX_pseudo_no_6,Cazin,NA,Plouigneau,Finistère,France,FR,NA,NA,NA,NA,48.56726,-3.70142
FR-26,FR_26_XX_pseudo_no_7,Cazin,NA,Plouigneau,Finistère,France,FR,NA,NA,NA,NA,48.56726,-3.70142
FR-27,FR_27_XX_pseudo_no_1,Goarillac'h,NA,Plounévez-Lochrist,Finistère,France,FR,NA,NA,NA,NA,48.61734,-4.21184
FR-27,FR_27_XX_pseudo_no_2,Goarillac'h,NA,Plounévez-Lochrist,Finistère,France,FR,NA,NA,NA,NA,48.61734,-4.21184
FR-27,FR_27_XX_pseudo_no_3,Goarillac'h,NA,Plounévez-Lochrist,Finistère,France,FR,NA,NA,NA,NA,48.61734,-4.21184
FR-28,FR_28_XX_2_pseudo_no_1,Kernonen,NA,Plouvorn,Finistère,France,FR,NA,NA,NA,NA,48.57875,-4.03746
FR-28,FR_28_XX_2_pseudo_no_10,Kernonen,NA,Plouvorn,Finistère,France,FR,NA,NA,NA,NA,48.57875,-4.03746
FR-28,FR_28_XX_2_pseudo_no_11,Kernonen,NA,Plouvorn,Finistère,France,FR,NA,NA,NA,NA,48.57875,-4.03746
FR-28,FR_28_XX_2_pseudo_no_12,Kernonen,NA,Plouvorn,Finistère,France,FR,NA,NA,NA,NA,48.57875,-4.03746
FR-28,FR_28_XX_2_pseudo_no_13,Kernonen,NA,Plouvorn,Finistère,France,FR,NA,NA,NA,NA,48.57875,-4.03746
FR-28,FR_28_XX_2_pseudo_no_14,Kernonen,NA,Plouvorn,Finistère,France,FR,NA,NA,NA,NA,48.57875,-4.03746
FR-28,FR_28_XX_2_pseudo_no_15,Kernonen,NA,Plouvorn,Finistère,France,FR,NA,NA,NA,NA,48.57875,-4.03746
FR-28,FR_28_XX_2_pseudo_no_16,Kernonen,NA,Plouvorn,Finistère,France,FR,NA,NA,NA,NA,48.57875,-4.03746
FR-28,FR_28_XX_2_pseudo_no_17,Kernonen,NA,Plouvorn,Finistère,France,FR,NA,NA,NA,NA,48.57875,-4.03746
FR-28,FR_28_XX_2_pseudo_no_18,Kernonen,NA,Plouvorn,Finistère,France,FR,NA,NA,NA,NA,48.57875,-4.03746
FR-28,FR_28_XX_2_pseudo_no_19,Kernonen,NA,Plouvorn,Finistère,France,FR,NA,NA,NA,NA,48.57875,-4.03746
FR-28,FR_28_XX_2_pseudo_no_2,Kernonen,NA,Plouvorn,Finistère,France,FR,NA,NA,NA,NA,48.57875,-4.03746
FR-28,FR_28_XX_2_pseudo_no_20,Kernonen,NA,Plouvorn,Finistère,France,FR,NA,NA,NA,NA,48.57875,-4.03746
FR-28,FR_28_XX_2_pseudo_no_21,Kernonen,NA,Plouvorn,Finistère,France,FR,NA,NA,NA,NA,48.57875,-4.03746
FR-28,FR_28_XX_2_pseudo_no_22,Kernonen,NA,Plouvorn,Finistère,France,FR,NA,NA,NA,NA,48.57875,-4.03746
FR-28,FR_28_XX_2_pseudo_no_23,Kernonen,NA,Plouvorn,Finistère,France,FR,NA,NA,NA,NA,48.57875,-4.03746
FR-28,FR_28_XX_2_pseudo_no_24,Kernonen,NA,Plouvorn,Finistère,France,FR,NA,NA,NA,NA,48.57875,-4.03746
FR-28,FR_28_XX_2_pseudo_no_25,Kernonen,NA,Plouvorn,Finistère,France,FR,NA,NA,NA,NA,48.57875,-4.03746
FR-28,FR_28_XX_2_pseudo_no_3,Kernonen,NA,Plouvorn,Finistère,France,FR,NA,NA,NA,NA,48.57875,-4.03746
FR-28,FR_28_XX_2_pseudo_no_4,Kernonen,NA,Plouvorn,Finistère,France,FR,NA,NA,NA,NA,48.57875,-4.03746
FR-28,FR_28_XX_2_pseudo_no_5,Kernonen,NA,Plouvorn,Finistère,France,FR,NA,NA,NA,NA,48.57875,-4.03746
FR-28,FR_28_XX_2_pseudo_no_6,Kernonen,NA,Plouvorn,Finistère,France,FR,NA,NA,NA,NA,48.57875,-4.03746
FR-28,FR_28_XX_2_pseudo_no_7,Kernonen,NA,Plouvorn,Finistère,France,FR,NA,NA,NA,NA,48.57875,-4.03746
FR-28,FR_28_XX_2_pseudo_no_8,Kernonen,NA,Plouvorn,Finistère,France,FR,NA,NA,NA,NA,48.57875,-4.03746
FR-28,FR_28_XX_2_pseudo_no_9,Kernonen,NA,Plouvorn,Finistère,France,FR,NA,NA,NA,NA,48.57875,-4.03746
FR-28,FR_28_XX_pseudo_no_1,Kernonen,NA,Plouvorn,Finistère,France,FR,NA,NA,NA,NA,48.57875,-4.03746
FR-28,FR_28_XX_pseudo_no_10,Kernonen,NA,Plouvorn,Finistère,France,FR,NA,NA,NA,NA,48.57875,-4.03746
FR-28,FR_28_XX_pseudo_no_11,Kernonen,NA,Plouvorn,Finistère,France,FR,NA,NA,NA,NA,48.57875,-4.03746
FR-28,FR_28_XX_pseudo_no_12,Kernonen,NA,Plouvorn,Finistère,France,FR,NA,NA,NA,NA,48.57875,-4.03746
FR-28,FR_28_XX_pseudo_no_13,Kernonen,NA,Plouvorn,Finistère,France,FR,NA,NA,NA,NA,48.57875,-4.03746
FR-28,FR_28_XX_pseudo_no_14,Kernonen,NA,Plouvorn,Finistère,France,FR,NA,NA,NA,NA,48.57875,-4.03746
FR-28,FR_28_XX_pseudo_no_15,Kernonen,NA,Plouvorn,Finistère,France,FR,NA,NA,NA,NA,48.57875,-4.03746
FR-28,FR_28_XX_pseudo_no_16,Kernonen,NA,Plouvorn,Finistère,France,FR,NA,NA,NA,NA,48.57875,-4.03746
FR-28,FR_28_XX_pseudo_no_17,Kernonen,NA,Plouvorn,Finistère,France,FR,NA,NA,NA,NA,48.57875,-4.03746
FR-28,FR_28_XX_pseudo_no_18,Kernonen,NA,Plouvorn,Finistère,France,FR,NA,NA,NA,NA,48.57875,-4.03746
FR-28,FR_28_XX_pseudo_no_19,Kernonen,NA,Plouvorn,Finistère,France,FR,NA,NA,NA,NA,48.57875,-4.03746
FR-28,FR_28_XX_pseudo_no_2,Kernonen,NA,Plouvorn,Finistère,France,FR,NA,NA,NA,NA,48.57875,-4.03746
FR-28,FR_28_XX_pseudo_no_20,Kernonen,NA,Plouvorn,Finistère,France,FR,NA,NA,NA,NA,48.57875,-4.03746
FR-28,FR_28_XX_pseudo_no_21,Kernonen,NA,Plouvorn,Finistère,France,FR,NA,NA,NA,NA,48.57875,-4.03746
FR-28,FR_28_XX_pseudo_no_22,Kernonen,NA,Plouvorn,Finistère,France,FR,NA,NA,NA,NA,48.57875,-4.03746
FR-28,FR_28_XX_pseudo_no_23,Kernonen,NA,Plouvorn,Finistère,France,FR,NA,NA,NA,NA,48.57875,-4.03746
FR-28,FR_28_XX_pseudo_no_24,Kernonen,NA,Plouvorn,Finistère,France,FR,NA,NA,NA,NA,48.57875,-4.03746
FR-28,FR_28_XX_pseudo_no_25,Kernonen,NA,Plouvorn,Finistère,France,FR,NA,NA,NA,NA,48.57875,-4.03746
FR-28,FR_28_XX_pseudo_no_3,Kernonen,NA,Plouvorn,Finistère,France,FR,NA,NA,NA,NA,48.57875,-4.03746
FR-28,FR_28_XX_pseudo_no_4,Kernonen,NA,Plouvorn,Finistère,France,FR,NA,NA,NA,NA,48.57875,-4.03746
FR-28,FR_28_XX_pseudo_no_5,Kernonen,NA,Plouvorn,Finistère,France,FR,NA,NA,NA,NA,48.57875,-4.03746
FR-28,FR_28_XX_pseudo_no_6,Kernonen,NA,Plouvorn,Finistère,France,FR,NA,NA,NA,NA,48.57875,-4.03746
FR-28,FR_28_XX_pseudo_no_7,Kernonen,NA,Plouvorn,Finistère,France,FR,NA,NA,NA,NA,48.57875,-4.03746
FR-28,FR_28_XX_pseudo_no_8,Kernonen,NA,Plouvorn,Finistère,France,FR,NA,NA,NA,NA,48.57875,-4.03746
FR-28,FR_28_XX_pseudo_no_9,Kernonen,NA,Plouvorn,Finistère,France,FR,NA,NA,NA,NA,48.57875,-4.03746
FR-29,FR_29_XX_pseudo_no_1,Keruzoret,NA,Plouvorn,Finistère,France,FR,NA,NA,NA,NA,48.57875,-4.03746
FR-29,FR_29_XX_pseudo_no_2,Keruzoret,NA,Plouvorn,Finistère,France,FR,NA,NA,NA,NA,48.57875,-4.03746
FR-29,FR_29_XX_pseudo_no_3,Keruzoret,NA,Plouvorn,Finistère,France,FR,NA,NA,NA,NA,48.57875,-4.03746
FR-29,FR_29_XX_pseudo_no_4,Keruzoret,NA,Plouvorn,Finistère,France,FR,NA,NA,NA,NA,48.57875,-4.03746
FR-29,FR_29_XX_pseudo_no_5,Keruzoret,NA,Plouvorn,Finistère,France,FR,NA,NA,NA,NA,48.57875,-4.03746
FR-29,FR_29_XX_pseudo_no_6,Keruzoret,NA,Plouvorn,Finistère,France,FR,NA,NA,NA,NA,48.57875,-4.03746
FR-29,FR_29_XX_pseudo_no_7,Keruzoret,NA,Plouvorn,Finistère,France,FR,NA,NA,NA,NA,48.57875,-4.03746
FR-29,FR_29_XX_pseudo_no_8,Keruzoret,NA,Plouvorn,Finistère,France,FR,NA,NA,NA,NA,48.57875,-4.03746
FR-30,FR_30_01_pseudo_no_1,Lambader (?),NA,Plouvorn,Finistère,France,FR,NA,NA,NA,NA,48.57875,-4.03746
FR-31,FR_31_XX_pseudo_no_1,Kerguévarec,NA,Plouyé,Finistère,France,FR,NA,NA,NA,NA,48.31477,-3.73652
FR-31,FR_31_XX_pseudo_no_10,Kerguévarec,NA,Plouyé,Finistère,France,FR,NA,NA,NA,NA,48.31477,-3.73652
FR-31,FR_31_XX_pseudo_no_11,Kerguévarec,NA,Plouyé,Finistère,France,FR,NA,NA,NA,NA,48.31477,-3.73652
FR-31,FR_31_XX_pseudo_no_2,Kerguévarec,NA,Plouyé,Finistère,France,FR,NA,NA,NA,NA,48.31477,-3.73652
FR-31,FR_31_XX_pseudo_no_3,Kerguévarec,NA,Plouyé,Finistère,France,FR,NA,NA,NA,NA,48.31477,-3.73652
FR-31,FR_31_XX_pseudo_no_4,Kerguévarec,NA,Plouyé,Finistère,France,FR,NA,NA,NA,NA,48.31477,-3.73652
FR-31,FR_31_XX_pseudo_no_5,Kerguévarec,NA,Plouyé,Finistère,France,FR,NA,NA,NA,NA,48.31477,-3.73652
FR-31,FR_31_XX_pseudo_no_6,Kerguévarec,NA,Plouyé,Finistère,France,FR,NA,NA,NA,NA,48.31477,-3.73652
FR-31,FR_31_XX_pseudo_no_7,Kerguévarec,NA,Plouyé,Finistère,France,FR,NA,NA,NA,NA,48.31477,-3.73652
FR-31,FR_31_XX_pseudo_no_8,Kerguévarec,NA,Plouyé,Finistère,France,FR,NA,NA,NA,NA,48.31477,-3.73652
FR-31,FR_31_XX_pseudo_no_9,Kerguévarec,NA,Plouyé,Finistère,France,FR,NA,NA,NA,NA,48.31477,-3.73652
FR-34,FR_34_XX_pseudo_no_1,Kermenhir,NA,Poullan-sur-Mer,Finistère,France,FR,NA,NA,NA,NA,48.08064,-4.41412
FR-34,FR_34_XX_pseudo_no_2,Kermenhir,NA,Poullan-sur-Mer,Finistère,France,FR,NA,NA,NA,NA,48.08064,-4.41412
FR-35,FR_35_XX_pseudo_no_1,Kervini Nord,NA,Poullan-sur-Mer,Finistère,France,FR,NA,NA,NA,NA,48.08064,-4.41412
FR-35,FR_35_XX_pseudo_no_10,Kervini Nord,NA,Poullan-sur-Mer,Finistère,France,FR,NA,NA,NA,NA,48.08064,-4.41412
FR-35,FR_35_XX_pseudo_no_11,Kervini Nord,NA,Poullan-sur-Mer,Finistère,France,FR,NA,NA,NA,NA,48.08064,-4.41412
FR-35,FR_35_XX_pseudo_no_12,Kervini Nord,NA,Poullan-sur-Mer,Finistère,France,FR,NA,NA,NA,NA,48.08064,-4.41412
FR-35,FR_35_XX_pseudo_no_2,Kervini Nord,NA,Poullan-sur-Mer,Finistère,France,FR,NA,NA,NA,NA,48.08064,-4.41412
FR-35,FR_35_XX_pseudo_no_3,Kervini Nord,NA,Poullan-sur-Mer,Finistère,France,FR,NA,NA,NA,NA,48.08064,-4.41412
FR-35,FR_35_XX_pseudo_no_4,Kervini Nord,NA,Poullan-sur-Mer,Finistère,France,FR,NA,NA,NA,NA,48.08064,-4.41412
FR-35,FR_35_XX_pseudo_no_5,Kervini Nord,NA,Poullan-sur-Mer,Finistère,France,FR,NA,NA,NA,NA,48.08064,-4.41412
FR-35,FR_35_XX_pseudo_no_6,Kervini Nord,NA,Poullan-sur-Mer,Finistère,France,FR,NA,NA,NA,NA,48.08064,-4.41412
FR-35,FR_35_XX_pseudo_no_7,Kervini Nord,NA,Poullan-sur-Mer,Finistère,France,FR,NA,NA,NA,NA,48.08064,-4.41412
FR-35,FR_35_XX_pseudo_no_8,Kervini Nord,NA,Poullan-sur-Mer,Finistère,France,FR,NA,NA,NA,NA,48.08064,-4.41412
FR-35,FR_35_XX_pseudo_no_9,Kervini Nord,NA,Poullan-sur-Mer,Finistère,France,FR,NA,NA,NA,NA,48.08064,-4.41412
FR-37,FR_37_XX_pseudo_no_1,Lothéa,NA,Quimperlé,Finistère,France,FR,NA,NA,NA,NA,47.87215,-3.54994
FR-37,FR_37_XX_pseudo_no_2,Lothéa,NA,Quimperlé,Finistère,France,FR,NA,NA,NA,NA,47.87215,-3.54994
FR-37,FR_37_XX_pseudo_no_3,Lothéa,NA,Quimperlé,Finistère,France,FR,NA,NA,NA,NA,47.87215,-3.54994
FR-38,FR_38_XX_pseudo_no_1,Limbabu / Creac'h-Morvan,NA,Saint-Thégonnec,Finistère,France,FR,NA,NA,NA,NA,48.52039,-3.94611
FR-38,FR_38_XX_pseudo_no_10,Limbabu / Creac'h-Morvan,NA,Saint-Thégonnec,Finistère,France,FR,NA,NA,NA,NA,48.52039,-3.94611
FR-38,FR_38_XX_pseudo_no_11,Limbabu / Creac'h-Morvan,NA,Saint-Thégonnec,Finistère,France,FR,NA,NA,NA,NA,48.52039,-3.94611
FR-38,FR_38_XX_pseudo_no_12,Limbabu / Creac'h-Morvan,NA,Saint-Thégonnec,Finistère,France,FR,NA,NA,NA,NA,48.52039,-3.94611
FR-38,FR_38_XX_pseudo_no_2,Limbabu / Creac'h-Morvan,NA,Saint-Thégonnec,Finistère,France,FR,NA,NA,NA,NA,48.52039,-3.94611
FR-38,FR_38_XX_pseudo_no_3,Limbabu / Creac'h-Morvan,NA,Saint-Thégonnec,Finistère,France,FR,NA,NA,NA,NA,48.52039,-3.94611
FR-38,FR_38_XX_pseudo_no_4,Limbabu / Creac'h-Morvan,NA,Saint-Thégonnec,Finistère,France,FR,NA,NA,NA,NA,48.52039,-3.94611
FR-38,FR_38_XX_pseudo_no_5,Limbabu / Creac'h-Morvan,NA,Saint-Thégonnec,Finistère,France,FR,NA,NA,NA,NA,48.52039,-3.94611
FR-38,FR_38_XX_pseudo_no_6,Limbabu / Creac'h-Morvan,NA,Saint-Thégonnec,Finistère,France,FR,NA,NA,NA,NA,48.52039,-3.94611
FR-38,FR_38_XX_pseudo_no_7,Limbabu / Creac'h-Morvan,NA,Saint-Thégonnec,Finistère,France,FR,NA,NA,NA,NA,48.52039,-3.94611
FR-38,FR_38_XX_pseudo_no_8,Limbabu / Creac'h-Morvan,NA,Saint-Thégonnec,Finistère,France,FR,NA,NA,NA,NA,48.52039,-3.94611
FR-38,FR_38_XX_pseudo_no_9,Limbabu / Creac'h-Morvan,NA,Saint-Thégonnec,Finistère,France,FR,NA,NA,NA,NA,48.52039,-3.94611
FR-39,FR_39_XX_2_pseudo_no_1,Graeoc 2 / Liorzou 2,NA,Saint-Vougay,Finistère,France,FR,NA,NA,NA,NA,48.59472,-4.13797
FR-39,FR_39_XX_2_pseudo_no_2,Graeoc 2 / Liorzou 2,NA,Saint-Vougay,Finistère,France,FR,NA,NA,NA,NA,48.59472,-4.13797
FR-39,FR_39_XX_2_pseudo_no_3,Graeoc 2 / Liorzou 2,NA,Saint-Vougay,Finistère,France,FR,NA,NA,NA,NA,48.59472,-4.13797
FR-39,FR_39_XX_pseudo_no_1,Graeoc 2 / Liorzou 2,NA,Saint-Vougay,Finistère,France,FR,NA,NA,NA,NA,48.59472,-4.13797
FR-39,FR_39_XX_pseudo_no_2,Graeoc 2 / Liorzou 2,NA,Saint-Vougay,Finistère,France,FR,NA,NA,NA,NA,48.59472,-4.13797
FR-39,FR_39_XX_pseudo_no_3,Graeoc 2 / Liorzou 2,NA,Saint-Vougay,Finistère,France,FR,NA,NA,NA,NA,48.59472,-4.13797
FR-39,FR_39_XX_pseudo_no_4,Graeoc 2 / Liorzou 2,NA,Saint-Vougay,Finistère,France,FR,NA,NA,NA,NA,48.59472,-4.13797
FR-39,FR_39_XX_pseudo_no_5,Graeoc 2 / Liorzou 2,NA,Saint-Vougay,Finistère,France,FR,NA,NA,NA,NA,48.59472,-4.13797
FR-39,FR_39_XX_pseudo_no_6,Graeoc 2 / Liorzou 2,NA,Saint-Vougay,Finistère,France,FR,NA,NA,NA,NA,48.59472,-4.13797
FR-39,FR_39_XX_pseudo_no_7,Graeoc 2 / Liorzou 2,NA,Saint-Vougay,Finistère,France,FR,NA,NA,NA,NA,48.59472,-4.13797
FR-42,FR_42_XX_pseudo_no_1,La Couronne-Blanche,NA,Petit-Auverné,Loire-Atlantique,France,FR,NA,NA,NA,NA,47.61034,-1.29033
FR-43,FR_43_XX_pseudo_no_1,Tumulus de la Motte,NA,Pornic,Loire-Atlantique,France,FR,NA,NA,NA,NA,47.11205,-2.08888
FR-43,FR_43_XX_pseudo_no_2,Tumulus de la Motte,NA,Pornic,Loire-Atlantique,France,FR,NA,NA,NA,NA,47.11205,-2.08888
FR-44,FR_44_XX_pseudo_no_1,Fosse-Yvon,NA,Beaumont-Hague,Manche,France,FR,NA,NA,NA,NA,49.66387,-1.83822
FR-45,FR_45_01_pseudo_no_1,Petit-Mont,Tombe IIIa,Arzon,Morbihan,France,FR,NA,NA,NA,NA,47.54852,-2.88989
FR-46,FR_46_XX_pseudo_no_1,Sans provenance,NA,Erdeven,Morbihan,France,FR,NA,NA,NA,NA,47.6421,-3.15706
FR-46,FR_46_XX_pseudo_no_2,Sans provenance,NA,Erdeven,Morbihan,France,FR,NA,NA,NA,NA,47.6421,-3.15706
FR-48,FR_48_XX_pseudo_no_1,Kercado,NA,Carnac,Morbihan,France,FR,NA,NA,NA,NA,47.58351,-3.07884
FR-48,FR_48_XX_pseudo_no_2,Kercado,NA,Carnac,Morbihan,France,FR,NA,NA,NA,NA,47.58351,-3.07884
FR-50,FR_50_02_pseudo_no_1,Kerlescan,NA,Carnac,Morbihan,France,FR,NA,NA,NA,NA,47.58351,-3.07884
FR-51,FR_51_XX_pseudo_no_1,La Rogarte,NA,Carnac,Morbihan,France,FR,NA,NA,NA,NA,47.58351,-3.07884
FR-51,FR_51_XX_pseudo_no_2,La Rogarte,NA,Carnac,Morbihan,France,FR,NA,NA,NA,NA,47.58351,-3.07884
FR-51,FR_51_XX_pseudo_no_3,La Rogarte,NA,Carnac,Morbihan,France,FR,NA,NA,NA,NA,47.58351,-3.07884
FR-51,FR_51_XX_pseudo_no_4,La Rogarte,NA,Carnac,Morbihan,France,FR,NA,NA,NA,NA,47.58351,-3.07884
FR-51,FR_51_XX_pseudo_no_5,La Rogarte,NA,Carnac,Morbihan,France,FR,NA,NA,NA,NA,47.58351,-3.07884
FR-51,FR_51_XX_pseudo_no_6,La Rogarte,NA,Carnac,Morbihan,France,FR,NA,NA,NA,NA,47.58351,-3.07884
FR-52,FR_52_XX_pseudo_no_1,Mané-Roh-en-Tallec,NA,Carnac,Morbihan,France,FR,NA,NA,NA,NA,47.58351,-3.07884
FR-53,FR_53_XX_pseudo_no_1,Er-Mar,NA,Crac’h,Morbihan,France,FR,NA,NA,NA,NA,47.61659,-3.00069
FR-53,FR_53_XX_pseudo_no_2,Er-Mar,NA,Crac’h,Morbihan,France,FR,NA,NA,NA,NA,47.61659,-3.00069
FR-54,FR_54_XX_pseudo_no_1,Luffang,NA,Crac’h,Morbihan,France,FR,NA,NA,NA,NA,48.61659,-2.00069
FR-54,FR_54_XX_pseudo_no_2,Luffang,NA,Crac’h,Morbihan,France,FR,NA,NA,NA,NA,48.61659,-2.00069
FR-55,FR_55_XX_pseudo_no_1,Coët-er-Garf,NA,Elven,Morbihan,France,FR,NA,NA,NA,NA,47.7323,-2.58956
FR-55,FR_55_XX_pseudo_no_10,Coët-er-Garf,NA,Elven,Morbihan,France,FR,NA,NA,NA,NA,47.7323,-2.58956
FR-55,FR_55_XX_pseudo_no_11,Coët-er-Garf,NA,Elven,Morbihan,France,FR,NA,NA,NA,NA,47.7323,-2.58956
FR-55,FR_55_XX_pseudo_no_12,Coët-er-Garf,NA,Elven,Morbihan,France,FR,NA,NA,NA,NA,47.7323,-2.58956
FR-55,FR_55_XX_pseudo_no_2,Coët-er-Garf,NA,Elven,Morbihan,France,FR,NA,NA,NA,NA,47.7323,-2.58956
FR-55,FR_55_XX_pseudo_no_3,Coët-er-Garf,NA,Elven,Morbihan,France,FR,NA,NA,NA,NA,47.7323,-2.58956
FR-55,FR_55_XX_pseudo_no_4,Coët-er-Garf,NA,Elven,Morbihan,France,FR,NA,NA,NA,NA,47.7323,-2.58956
FR-55,FR_55_XX_pseudo_no_5,Coët-er-Garf,NA,Elven,Morbihan,France,FR,NA,NA,NA,NA,47.7323,-2.58956
FR-55,FR_55_XX_pseudo_no_6,Coët-er-Garf,NA,Elven,Morbihan,France,FR,NA,NA,NA,NA,47.7323,-2.58956
FR-55,FR_55_XX_pseudo_no_7,Coët-er-Garf,NA,Elven,Morbihan,France,FR,NA,NA,NA,NA,47.7323,-2.58956
FR-55,FR_55_XX_pseudo_no_8,Coët-er-Garf,NA,Elven,Morbihan,France,FR,NA,NA,NA,NA,47.7323,-2.58956
FR-55,FR_55_XX_pseudo_no_9,Coët-er-Garf,NA,Elven,Morbihan,France,FR,NA,NA,NA,NA,47.7323,-2.58956
FR-56,FR_56_XX_pseudo_no_1,Goërem,NA,Gâvres,Morbihan,France,FR,NA,NA,NA,NA,47.69404,-3.35249
FR-56,FR_56_XX_pseudo_no_2,Goërem,NA,Gâvres,Morbihan,France,FR,NA,NA,NA,NA,47.69404,-3.35249
FR-57,FR_57_01_pseudo_no_1,Parc-Menhir / Kermario,NA,Groix,Morbihan,France,FR,NA,NA,NA,NA,47.63887,-3.4543
FR-58,FR_58_XX_pseudo_no_1,Cruguel,NA,Guidel,Morbihan,France,FR,NA,NA,NA,NA,47.78889,-3.48667
FR-58,FR_58_XX_pseudo_no_2,Cruguel,NA,Guidel,Morbihan,France,FR,NA,NA,NA,NA,47.78889,-3.48667
FR-58,FR_58_XX_pseudo_no_3,Cruguel,NA,Guidel,Morbihan,France,FR,NA,NA,NA,NA,47.78889,-3.48667
FR-58,FR_58_XX_pseudo_no_4,Cruguel,NA,Guidel,Morbihan,France,FR,NA,NA,NA,NA,47.78889,-3.48667
FR-58,FR_58_XX_pseudo_no_5,Cruguel,NA,Guidel,Morbihan,France,FR,NA,NA,NA,NA,47.78889,-3.48667
FR-58,FR_58_XX_pseudo_no_6,Cruguel,NA,Guidel,Morbihan,France,FR,NA,NA,NA,NA,47.78889,-3.48667
FR-59,FR_59_01_pseudo_no_1,Er-Roh / Kermarker,NA,La Trinité-sur-Mer,Morbihan,France,FR,NA,NA,NA,NA,47.5868,-3.02994
FR-60,FR_60_XX_pseudo_no_1,Kervilor,NA,La Trinité-sur-Mer,Morbihan,France,FR,NA,NA,NA,NA,47.5868,-3.02994
FR-60,FR_60_XX_pseudo_no_2,Kervilor,NA,La Trinité-sur-Mer,Morbihan,France,FR,NA,NA,NA,NA,47.5868,-3.02994
FR-60,FR_60_XX_pseudo_no_3,Kervilor,NA,La Trinité-sur-Mer,Morbihan,France,FR,NA,NA,NA,NA,47.5868,-3.02994
FR-62,FR_62_XX_pseudo_no_1,Kercadoret,NA,Locmariaquer,Morbihan,France,FR,NA,NA,NA,NA,47.56915,-2.94468
FR-62,FR_62_XX_pseudo_no_2,Kercadoret,NA,Locmariaquer,Morbihan,France,FR,NA,NA,NA,NA,47.56915,-2.94468
FR-62,FR_62_XX_pseudo_no_3,Kercadoret,NA,Locmariaquer,Morbihan,France,FR,NA,NA,NA,NA,47.56915,-2.94468
FR-62,FR_62_XX_pseudo_no_4,Kercadoret,NA,Locmariaquer,Morbihan,France,FR,NA,NA,NA,NA,47.56915,-2.94468
FR-62,FR_62_XX_pseudo_no_5,Kercadoret,NA,Locmariaquer,Morbihan,France,FR,NA,NA,NA,NA,47.56915,-2.94468
FR-62,FR_62_XX_pseudo_no_6,Kercadoret,NA,Locmariaquer,Morbihan,France,FR,NA,NA,NA,NA,47.56915,-2.94468
FR-63,FR_63_02_pseudo_no_1,La Table-des-Marchands,NA,Locmariaquer,Morbihan,France,FR,NA,NA,NA,NA,47.56915,-2.94468
FR-65,FR_65_01_pseudo_no_1,Beg-er-Lann/Fort-Bloqué,NA,Ploemeur,Morbihan,France,FR,NA,NA,NA,NA,47.73333,-3.43333
FR-66,FR_66_02_pseudo_no_1,Port-Fétih/Runélen,NA,Ploemeur,Morbihan,France,FR,NA,NA,NA,NA,47.73333,-3.43333
FR-67,FR_67_01_pseudo_no_1,Saint-Adrien,NA,Ploemeur,Morbihan,France,FR,NA,NA,NA,NA,47.73333,-3.43333
FR-69,FR_69_01_pseudo_no_1,Rondossec,NA,Plouharnel,Morbihan,France,FR,NA,NA,NA,NA,47.59804,-3.11274
FR-70,FR_70_02_pseudo_no_1,Mané-Bras,NA,Plouhinec,Morbihan,France,FR,NA,NA,NA,NA,47.69752,-3.25127
FR-73,FR_73_01_pseudo_no_1,Mané-Han / Le Petit-Kerambel,NA,Saint-Philibert,Morbihan,France,FR,NA,NA,NA,NA,47.58821,-2.99978
FR-74,FR_74_01_pseudo_no_1,Brehuidic,NA,Sarzeau-Brillac,Morbihan,France,FR,NA,NA,NA,NA,47.54091,-2.81667
FR-75,FR_75_XX_pseudo_no_1,Loucé,NA,Loucé,Orne,France,FR,NA,NA,NA,NA,48.70273,-0.10175
FR-75,FR_75_XX_pseudo_no_2,Loucé,NA,Loucé,Orne,France,FR,NA,NA,NA,NA,48.70273,-0.10175
FR-75,FR_75_XX_pseudo_no_3,Loucé,NA,Loucé,Orne,France,FR,NA,NA,NA,NA,48.70273,-0.10175
UK-01,UK_01_XX_pseudo_no_1,Lambourn,Tumulus 31,Lambourn,Berkshire,United Kingdom,GB,NA,NA,NA,NA,51.50361,-1.53186
UK-01,UK_01_XX_pseudo_no_2,Lambourn,Tumulus 31,Lambourn,Berkshire,United Kingdom,GB,NA,NA,NA,NA,51.50361,-1.53186
UK-03,UK_03_01_pseudo_no_1,Botrea Hill,NA,Sancreed,Cornwall,United Kingdom,GB,NA,NA,NA,NA,50.10804,-5.61003
UK-03,UK_03_XX_2_pseudo_no_1,Botrea Hill,NA,Sancreed,Cornwall,United Kingdom,GB,NA,NA,NA,NA,50.10804,-5.61003
UK-03,UK_03_XX_2_pseudo_no_2,Botrea Hill,NA,Sancreed,Cornwall,United Kingdom,GB,NA,NA,NA,NA,50.10804,-5.61003
UK-05,UK_05_XX_pseudo_no_1,Plym Valley / Deadman's Bottom,NA,Langcombe,Cornwall,United Kingdom,GB,NA,NA,NA,NA,50.57253,-3.91538
UK-05,UK_05_XX_pseudo_no_2,Plym Valley / Deadman's Bottom,NA,Langcombe,Cornwall,United Kingdom,GB,NA,NA,NA,NA,50.57253,-3.91538
UK-05,UK_05_XX_pseudo_no_3,Plym Valley / Deadman's Bottom,NA,Langcombe,Cornwall,United Kingdom,GB,NA,NA,NA,NA,50.57253,-3.91538
UK-06,UK_06_XX_pseudo_no_1,Conygar Hill,NA,Dorchester,Dorset,United Kingdom,GB,NA,NA,NA,NA,50.7154,-2.4367
UK-06,UK_06_XX_pseudo_no_2,Conygar Hill,NA,Dorchester,Dorset,United Kingdom,GB,NA,NA,NA,NA,50.7154,-2.4367
UK-06,UK_06_XX_pseudo_no_3,Conygar Hill,NA,Dorchester,Dorset,United Kingdom,GB,NA,NA,NA,NA,50.7154,-2.4367
UK-06,UK_06_XX_pseudo_no_4,Conygar Hill,NA,Dorchester,Dorset,United Kingdom,GB,NA,NA,NA,NA,50.7154,-2.4367
UK-06,UK_06_XX_pseudo_no_5,Conygar Hill,NA,Dorchester,Dorset,United Kingdom,GB,NA,NA,NA,NA,50.7154,-2.4367
UK-06,UK_06_XX_pseudo_no_6,Conygar Hill,NA,Dorchester,Dorset,United Kingdom,GB,NA,NA,NA,NA,50.7154,-2.4367
UK-07,UK_07_XX_pseudo_no_1,Fordington Farm,Tombe 61,Dorchester,Dorset,United Kingdom,GB,NA,NA,NA,NA,50.7154,-2.4367
UK-08,UK_08_XX_pseudo_no_1,Thomas Hardye School,Tombe 1643,Dorchester,Dorset,United Kingdom,GB,NA,NA,NA,NA,50.7154,-2.4367
UK-08,UK_08_XX_pseudo_no_2,Thomas Hardye School,Tombe 1643,Dorchester,Dorset,United Kingdom,GB,NA,NA,NA,NA,50.7154,-2.4367
UK-08,UK_08_XX_pseudo_no_3,Thomas Hardye School,Tombe 1643,Dorchester,Dorset,United Kingdom,GB,NA,NA,NA,NA,50.7154,-2.4367
UK-10,UK_10_XX_pseudo_no_1,Wimborne St. Giles G9,NA,Woodyates,Dorset,United Kingdom,GB,NA,NA,NA,NA,50.97,-1.97
UK-10,UK_10_XX_pseudo_no_2,Wimborne St. Giles G9,NA,Woodyates,Dorset,United Kingdom,GB,NA,NA,NA,NA,50.97,-1.97
UK-10,UK_10_XX_pseudo_no_3,Wimborne St. Giles G9,NA,Woodyates,Dorset,United Kingdom,GB,NA,NA,NA,NA,50.97,-1.97
UK-10,UK_10_XX_pseudo_no_4,Wimborne St. Giles G9,NA,Woodyates,Dorset,United Kingdom,GB,NA,NA,NA,NA,50.97,-1.97
UK-11,UK_11_XX_pseudo_no_1,Mucking n° 137,NA,Mucking,Essex,United Kingdom,GB,NA,NA,NA,NA,51.50396,0.42766
UK-11,UK_11_XX_pseudo_no_10,Mucking n° 137,NA,Mucking,Essex,United Kingdom,GB,NA,NA,NA,NA,51.50396,0.42766
UK-11,UK_11_XX_pseudo_no_11,Mucking n° 137,NA,Mucking,Essex,United Kingdom,GB,NA,NA,NA,NA,51.50396,0.42766
UK-11,UK_11_XX_pseudo_no_2,Mucking n° 137,NA,Mucking,Essex,United Kingdom,GB,NA,NA,NA,NA,51.50396,0.42766
UK-11,UK_11_XX_pseudo_no_3,Mucking n° 137,NA,Mucking,Essex,United Kingdom,GB,NA,NA,NA,NA,51.50396,0.42766
UK-11,UK_11_XX_pseudo_no_4,Mucking n° 137,NA,Mucking,Essex,United Kingdom,GB,NA,NA,NA,NA,51.50396,0.42766
UK-11,UK_11_XX_pseudo_no_5,Mucking n° 137,NA,Mucking,Essex,United Kingdom,GB,NA,NA,NA,NA,51.50396,0.42766
UK-11,UK_11_XX_pseudo_no_6,Mucking n° 137,NA,Mucking,Essex,United Kingdom,GB,NA,NA,NA,NA,51.50396,0.42766
UK-11,UK_11_XX_pseudo_no_7,Mucking n° 137,NA,Mucking,Essex,United Kingdom,GB,NA,NA,NA,NA,51.50396,0.42766
UK-11,UK_11_XX_pseudo_no_8,Mucking n° 137,NA,Mucking,Essex,United Kingdom,GB,NA,NA,NA,NA,51.50396,0.42766
UK-11,UK_11_XX_pseudo_no_9,Mucking n° 137,NA,Mucking,Essex,United Kingdom,GB,NA,NA,NA,NA,51.50396,0.42766
UK-13,UK_13_XX_pseudo_no_1,Easton Lane,Inhumation 2752,Winchester,Hampshire,United Kingdom,GB,NA,NA,NA,NA,51.06513,-1.3187
UK-13,UK_13_XX_pseudo_no_2,Easton Lane,Inhumation 2752,Winchester,Hampshire,United Kingdom,GB,NA,NA,NA,NA,51.06513,-1.3187
UK-13,UK_13_XX_pseudo_no_3,Easton Lane,Inhumation 2752,Winchester,Hampshire,United Kingdom,GB,NA,NA,NA,NA,51.06513,-1.3187
UK-13,UK_13_XX_pseudo_no_4,Easton Lane,Inhumation 2752,Winchester,Hampshire,United Kingdom,GB,NA,NA,NA,NA,51.06513,-1.3187
UK-13,UK_13_XX_pseudo_no_5,Easton Lane,Inhumation 2752,Winchester,Hampshire,United Kingdom,GB,NA,NA,NA,NA,51.06513,-1.3187
UK-14,UK_14_01_pseudo_no_1,Olchon Valley,Ciste 1,Llanveynoe,Herefordshire,United Kingdom,GB,NA,NA,NA,NA,51.97539,-3.03551
UK-15,UK_15_XX_pseudo_no_1,Wellington Quarry,NA,Marden,Herefordshire,United Kingdom,GB,NA,NA,NA,NA,52.12972,-2.68766
UK-15,UK_15_XX_pseudo_no_2,Wellington Quarry,NA,Marden,Herefordshire,United Kingdom,GB,NA,NA,NA,NA,52.12972,-2.68766
UK-15,UK_15_XX_pseudo_no_3,Wellington Quarry,NA,Marden,Herefordshire,United Kingdom,GB,NA,NA,NA,NA,52.12972,-2.68766
UK-15,UK_15_XX_pseudo_no_4,Wellington Quarry,NA,Marden,Herefordshire,United Kingdom,GB,NA,NA,NA,NA,52.12972,-2.68766
UK-16,UK_16_XX_pseudo_no_1,Tring 30,NA,Tring,Hertfordshire,United Kingdom,GB,NA,NA,NA,NA,51.79471,-0.65824
UK-16,UK_16_XX_pseudo_no_2,Tring 30,NA,Tring,Hertfordshire,United Kingdom,GB,NA,NA,NA,NA,51.79471,-0.65824
UK-17,UK_17_01_pseudo_no_1,Nodgham,NA,Carisbrooke,Isle of Wight,United Kingdom,GB,NA,NA,NA,NA,50.69276,-1.3175
UK-18,UK_18_XX_pseudo_no_1,Chestnuts,NA,Addington,Kent,United Kingdom,GB,NA,NA,NA,NA,51.34391,1.40403
UK-18,UK_18_XX_pseudo_no_2,Chestnuts,NA,Addington,Kent,United Kingdom,GB,NA,NA,NA,NA,51.34391,1.40403
UK-19,UK_19_01_pseudo_no_1,Lord of the Manor 1,Tombe 6,Margate,Kent,United Kingdom,GB,NA,NA,NA,NA,51.38132,1.38617
UK-20,UK_20_XX_pseudo_no_1,QEQM Hospital 1,NA,Margate,Kent,United Kingdom,GB,NA,NA,NA,NA,51.38132,1.38617
UK-20,UK_20_XX_pseudo_no_2,QEQM Hospital 1,NA,Margate,Kent,United Kingdom,GB,NA,NA,NA,NA,51.38132,1.38617
UK-20,UK_20_XX_pseudo_no_3,QEQM Hospital 1,NA,Margate,Kent,United Kingdom,GB,NA,NA,NA,NA,51.38132,1.38617
UK-21,UK_21_01_pseudo_no_1,QEQM Hospital 2,NA,Margate,Kent,United Kingdom,GB,NA,NA,NA,NA,51.38132,1.38617
UK-22,UK_22_01_pseudo_no_1,Aldwincle,Tumulus 1,Aldwincle,Northamptonshire,United Kingdom,GB,NA,NA,NA,NA,52.42533,-0.52173
UK-24,UK_24_01_pseudo_no_1,Raunds,Tumulus 1,Raunds,Northamptonshire,United Kingdom,GB,NA,NA,NA,NA,52.34428,-0.53657
UK-25,UK_25_XX_pseudo_no_1,Raunds,Tumulus 5,Raunds,Northamptonshire,United Kingdom,GB,NA,NA,NA,NA,52.34428,-0.53657
UK-25,UK_25_XX_pseudo_no_2,Raunds,Tumulus 5,Raunds,Northamptonshire,United Kingdom,GB,NA,NA,NA,NA,52.34428,-0.53657
UK-25,UK_25_XX_pseudo_no_3,Raunds,Tumulus 5,Raunds,Northamptonshire,United Kingdom,GB,NA,NA,NA,NA,52.34428,-0.53657
UK-25,UK_25_XX_pseudo_no_4,Raunds,Tumulus 5,Raunds,Northamptonshire,United Kingdom,GB,NA,NA,NA,NA,52.34428,-0.53657
UK-26,UK_26_01_pseudo_no_1,Letcombe Bassett,Tumulus 290,Letcombe Bassett,Oxfordshire,United Kingdom,GB,NA,NA,NA,NA,51.56344,-1.46238
UK-27,UK_27_01_pseudo_no_1,Summertown,NA,Oxford,Oxfordshire,United Kingdom,GB,NA,NA,NA,NA,51.75222,-1.25596
UK-28,UK_28_XX_pseudo_no_1,Barrow Hills,Tombe 203,Radley,Oxfordshire,United Kingdom,GB,NA,NA,NA,NA,51.68746,-1.24025
UK-28,UK_28_XX_pseudo_no_2,Barrow Hills,Tombe 203,Radley,Oxfordshire,United Kingdom,GB,NA,NA,NA,NA,51.68746,-1.24025
UK-28,UK_28_XX_pseudo_no_3,Barrow Hills,Tombe 203,Radley,Oxfordshire,United Kingdom,GB,NA,NA,NA,NA,51.68746,-1.24025
UK-28,UK_28_XX_pseudo_no_4,Barrow Hills,Tombe 203,Radley,Oxfordshire,United Kingdom,GB,NA,NA,NA,NA,51.68746,-1.24025
UK-29,UK_29_01_pseudo_no_1,Barrow Hills,Tombe 950,Radley,Oxfordshire,United Kingdom,GB,NA,NA,NA,NA,51.68746,-1.24025
UK-30,UK_30_01_pseudo_no_1,Barrow Hills,Tombe 4660,Radley,Oxfordshire,United Kingdom,GB,NA,NA,NA,NA,51.68746,-1.24025
UK-32,UK_32_XX_pseudo_no_1,Barrow Hills,Tumulus 4a,Radley,Oxfordshire,United Kingdom,GB,NA,NA,NA,NA,51.68746,-1.24025
UK-32,UK_32_XX_pseudo_no_2,Barrow Hills,Tumulus 4a,Radley,Oxfordshire,United Kingdom,GB,NA,NA,NA,NA,51.68746,-1.24025
UK-34,UK_34_XX_pseudo_no_1,Stanton Harcourt,Tombe II,Stanton Harcourt,Oxfordshire,United Kingdom,GB,NA,NA,NA,NA,51.74919,-1.40179
UK-34,UK_34_XX_pseudo_no_2,Stanton Harcourt,Tombe II,Stanton Harcourt,Oxfordshire,United Kingdom,GB,NA,NA,NA,NA,51.74919,-1.40179
UK-34,UK_34_XX_pseudo_no_3,Stanton Harcourt,Tombe II,Stanton Harcourt,Oxfordshire,United Kingdom,GB,NA,NA,NA,NA,51.74919,-1.40179
UK-34,UK_34_XX_pseudo_no_4,Stanton Harcourt,Tombe II,Stanton Harcourt,Oxfordshire,United Kingdom,GB,NA,NA,NA,NA,51.74919,-1.40179
UK-36,UK_36_01_pseudo_no_1,Ditchling Road,NA,Brighton,Sussex,United Kingdom,GB,NA,NA,NA,NA,50.82838,-0.13947
UK-37,UK_37_XX_2_pseudo_no_1,Archer d’Amesbury,NA,Amesbury,Witltshire,United Kingdom,GB,NA,NA,NA,NA,51.17509,-1.78064
UK-37,UK_37_XX_2_pseudo_no_2,Archer d’Amesbury,NA,Amesbury,Witltshire,United Kingdom,GB,NA,NA,NA,NA,51.17509,-1.78064
UK-37,UK_37_XX_2_pseudo_no_3,Archer d’Amesbury,NA,Amesbury,Witltshire,United Kingdom,GB,NA,NA,NA,NA,51.17509,-1.78064
UK-37,UK_37_XX_2_pseudo_no_4,Archer d’Amesbury,NA,Amesbury,Witltshire,United Kingdom,GB,NA,NA,NA,NA,51.17509,-1.78064
UK-37,UK_37_XX_2_pseudo_no_5,Archer d’Amesbury,NA,Amesbury,Witltshire,United Kingdom,GB,NA,NA,NA,NA,51.17509,-1.78064
UK-37,UK_37_XX_2_pseudo_no_6,Archer d’Amesbury,NA,Amesbury,Witltshire,United Kingdom,GB,NA,NA,NA,NA,51.17509,-1.78064
UK-37,UK_37_XX_pseudo_no_1,Archer d’Amesbury,NA,Amesbury,Witltshire,United Kingdom,GB,NA,NA,NA,NA,51.17509,-1.78064
UK-37,UK_37_XX_pseudo_no_2,Archer d’Amesbury,NA,Amesbury,Witltshire,United Kingdom,GB,NA,NA,NA,NA,51.17509,-1.78064
UK-37,UK_37_XX_pseudo_no_3,Archer d’Amesbury,NA,Amesbury,Witltshire,United Kingdom,GB,NA,NA,NA,NA,51.17509,-1.78064
UK-37,UK_37_XX_pseudo_no_4,Archer d’Amesbury,NA,Amesbury,Witltshire,United Kingdom,GB,NA,NA,NA,NA,51.17509,-1.78064
UK-37,UK_37_XX_pseudo_no_5,Archer d’Amesbury,NA,Amesbury,Witltshire,United Kingdom,GB,NA,NA,NA,NA,51.17509,-1.78064
UK-37,UK_37_XX_pseudo_no_6,Archer d’Amesbury,NA,Amesbury,Witltshire,United Kingdom,GB,NA,NA,NA,NA,51.17509,-1.78064
UK-37,UK_37_XX_pseudo_no_7,Archer d’Amesbury,NA,Amesbury,Witltshire,United Kingdom,GB,NA,NA,NA,NA,51.17509,-1.78064
UK-37,UK_37_XX_pseudo_no_8,Archer d’Amesbury,NA,Amesbury,Witltshire,United Kingdom,GB,NA,NA,NA,NA,51.17509,-1.78064
UK-37,UK_37_XX_pseudo_no_9,Archer d’Amesbury,NA,Amesbury,Witltshire,United Kingdom,GB,NA,NA,NA,NA,51.17509,-1.78064
UK-38,UK_38_XX_pseudo_no_1,Archers de Boscombe,NA,Amesbury,Witltshire,United Kingdom,GB,NA,NA,NA,NA,51.17509,-1.78064
UK-38,UK_38_XX_pseudo_no_2,Archers de Boscombe,NA,Amesbury,Witltshire,United Kingdom,GB,NA,NA,NA,NA,51.17509,-1.78064
UK-38,UK_38_XX_pseudo_no_3,Archers de Boscombe,NA,Amesbury,Witltshire,United Kingdom,GB,NA,NA,NA,NA,51.17509,-1.78064
UK-39,UK_39_02_pseudo_no_1,Archer de Stonehenge,NA,Amesbury,Witltshire,United Kingdom,GB,NA,NA,NA,NA,51.17509,-1.78064
UK-49,UK_49_01_pseudo_no_1,Wanborough I / Aldbourne / Popple Church,NA,Wanborough,Witltshire,United Kingdom,GB,NA,NA,NA,NA,51.54263,-1.69837
UK-60,UK_60_XX_pseudo_no_1,Breach Farm,NA,Llanbleddian,Glamorgan (Vale of),United Kingdom,GB,NA,NA,NA,NA,51.48284,-3.62669
UK-60,UK_60_XX_pseudo_no_10,Breach Farm,NA,Llanbleddian,Glamorgan (Vale of),United Kingdom,GB,NA,NA,NA,NA,51.48284,-3.62669
UK-60,UK_60_XX_pseudo_no_11,Breach Farm,NA,Llanbleddian,Glamorgan (Vale of),United Kingdom,GB,NA,NA,NA,NA,51.48284,-3.62669
UK-60,UK_60_XX_pseudo_no_12,Breach Farm,NA,Llanbleddian,Glamorgan (Vale of),United Kingdom,GB,NA,NA,NA,NA,51.48284,-3.62669
UK-60,UK_60_XX_pseudo_no_2,Breach Farm,NA,Llanbleddian,Glamorgan (Vale of),United Kingdom,GB,NA,NA,NA,NA,51.48284,-3.62669
UK-60,UK_60_XX_pseudo_no_3,Breach Farm,NA,Llanbleddian,Glamorgan (Vale of),United Kingdom,GB,NA,NA,NA,NA,51.48284,-3.62669
UK-60,UK_60_XX_pseudo_no_4,Breach Farm,NA,Llanbleddian,Glamorgan (Vale of),United Kingdom,GB,NA,NA,NA,NA,51.48284,-3.62669
UK-60,UK_60_XX_pseudo_no_5,Breach Farm,NA,Llanbleddian,Glamorgan (Vale of),United Kingdom,GB,NA,NA,NA,NA,51.48284,-3.62669
UK-60,UK_60_XX_pseudo_no_6,Breach Farm,NA,Llanbleddian,Glamorgan (Vale of),United Kingdom,GB,NA,NA,NA,NA,51.48284,-3.62669
UK-60,UK_60_XX_pseudo_no_7,Breach Farm,NA,Llanbleddian,Glamorgan (Vale of),United Kingdom,GB,NA,NA,NA,NA,51.48284,-3.62669
UK-60,UK_60_XX_pseudo_no_8,Breach Farm,NA,Llanbleddian,Glamorgan (Vale of),United Kingdom,GB,NA,NA,NA,NA,51.48284,-3.62669
UK-60,UK_60_XX_pseudo_no_9,Breach Farm,NA,Llanbleddian,Glamorgan (Vale of),United Kingdom,GB,NA,NA,NA,NA,51.48284,-3.62669
UK-65,UK_65_XX_pseudo_no_1,Twr Gwyn Mawr,NA,Carno,Powys,United Kingdom,GB,NA,NA,NA,NA,52.57272,-3.53818
UK-65,UK_65_XX_pseudo_no_2,Twr Gwyn Mawr,NA,Carno,Powys,United Kingdom,GB,NA,NA,NA,NA,52.57272,-3.53818
UK-66,UK_66_XX_pseudo_no_1,Sarn-Y-Bryn-Caled,Crémation primaire,Welshpool,Powys,United Kingdom,GB,NA,NA,NA,NA,52.65973,-3.1471
UK-66,UK_66_XX_pseudo_no_2,Sarn-Y-Bryn-Caled,Crémation primaire,Welshpool,Powys,United Kingdom,GB,NA,NA,NA,NA,52.65973,-3.1471
